Zipcode,Irrev1,Irrev2,County,State,Irrev3,Irrev4,Alpha,Gamma
46057,40.333772,-86.38161,Clinton County,IN,18023,H1,0.628075923,0.429413858
46058,40.349135,-86.66424,Clinton County,IN,18023,H1,0.628075923,0.429413858
46067,40.304473,-86.469044,Clinton County,IN,18023,H1,0.628075923,0.429413858
76526,31.295568,-97.582152,Coryell County,TX,48099,H1,0.620775941,0.429685719
76538,31.629515,-97.90249,Coryell County,TX,48099,H1,0.620775941,0.429685719
76558,31.351386,-97.644352,Coryell County,TX,48099,H1,0.620775941,0.429685719
76566,31.506687,-97.98997,Coryell County,TX,48099,H1,0.620775941,0.429685719
76596,31.390196,-97.799309,Coryell County,TX,48099,H1,0.620775941,0.429685719
76597,31.390196,-97.799309,Coryell County,TX,48099,H1,0.620775941,0.429685719
76598,31.390196,-97.799309,Coryell County,TX,48099,H1,0.620775941,0.429685719
76599,31.470598,-97.734728,Coryell County,TX,48099,H1,0.620775941,0.429685719
45070,39.588878,-84.55562,Preble County,OH,39135,H1,0.617982862,0.429700855
45311,39.629735,-84.67557,Preble County,OH,39135,H1,0.617982862,0.429700855
45320,39.739353,-84.65393,Preble County,OH,39135,H1,0.617982862,0.429700855
45321,39.888717,-84.67216,Preble County,OH,39135,H1,0.617982862,0.429700855
45330,39.647494,-84.52749,Preble County,OH,39135,H1,0.617982862,0.429700855
45378,39.903161,-84.48822,Preble County,OH,39135,H1,0.617982862,0.429700855
58033,46.449141,-97.91961,Ransom County,ND,38073,H1,0.642017821,0.4302138
58054,46.43383,-97.67678,Ransom County,ND,38073,H1,0.642017821,0.4302138
26801,39.084895,-78.779,Hardy County,WV,54031,H1,0.620239139,0.430217372
26810,38.973027,-78.73978,Hardy County,WV,54031,H1,0.620239139,0.430217372
26812,38.878002,-78.88245,Hardy County,WV,54031,H1,0.620239139,0.430217372
26818,39.068317,-79.01717,Hardy County,WV,54031,H1,0.620239139,0.430217372
26845,39.184315,-78.9458,Hardy County,WV,54031,H1,0.620239139,0.430217372
26851,39.066543,-78.6218,Hardy County,WV,54031,H1,0.620239139,0.430217372
30132,33.945735,-84.84463,Paulding County,GA,13223,H1,0.588657275,0.431444638
56715,47.808866,-95.97713,Red Lake County,MN,27125,H1,0.6086108,0.431952468
56748,47.915369,-96.02739,Red Lake County,MN,27125,H1,0.6086108,0.431952468
31547,30.804684,-81.627717,Camden County,GA,13039,H1,0.667560357,0.432069732
31548,30.793409,-81.68428,Camden County,GA,13039,H1,0.667560357,0.432069732
31558,30.761081,-81.56912,Camden County,GA,13039,H1,0.667560357,0.432069732
31565,31.066479,-81.62656,Camden County,GA,13039,H1,0.667560357,0.432069732
31568,31.003385,-81.79512,Camden County,GA,13039,H1,0.667560357,0.432069732
31569,30.915778,-81.67924,Camden County,GA,13039,H1,0.667560357,0.432069732
66851,38.228452,-96.92825,Marion County,KS,20115,H1,0.603237793,0.432090536
66858,38.473549,-96.95611,Marion County,KS,20115,H1,0.603237793,0.432090536
66861,38.359189,-97.01768,Marion County,KS,20115,H1,0.603237793,0.432090536
67053,38.246972,-97.34817,Marion County,KS,20115,H1,0.603237793,0.432090536
67063,38.347058,-97.21489,Marion County,KS,20115,H1,0.603237793,0.432090536
67073,38.376681,-97.31611,Marion County,KS,20115,H1,0.603237793,0.432090536
67438,38.499781,-97.27114,Marion County,KS,20115,H1,0.603237793,0.432090536
67483,38.538684,-97.15947,Marion County,KS,20115,H1,0.603237793,0.432090536
68309,40.048634,-96.57326,Gage County,NE,31067,H1,0.656117985,0.432420049
68318,40.14601,-96.66049,Gage County,NE,31067,H1,0.656117985,0.432420049
68328,40.473614,-96.84511,Gage County,NE,31067,H1,0.656117985,0.432420049
68331,40.481866,-96.70362,Gage County,NE,31067,H1,0.656117985,0.432420049
68357,40.298643,-96.54833,Gage County,NE,31067,H1,0.656117985,0.432420049
68381,40.081107,-96.4838,Gage County,NE,31067,H1,0.656117985,0.432420049
68415,40.052388,-96.81761,Gage County,NE,31067,H1,0.656117985,0.432420049
68422,40.385662,-96.71396,Gage County,NE,31067,H1,0.656117985,0.432420049
68458,40.239986,-96.49182,Gage County,NE,31067,H1,0.656117985,0.432420049
68466,40.087289,-96.65361,Gage County,NE,31067,H1,0.656117985,0.432420049
83601,43.801588,-115.13085,Elmore County,ID,16039,H1,0.598312345,0.432516926
83623,42.965519,-115.32724,Elmore County,ID,16039,H1,0.598312345,0.432516926
83627,42.939818,-115.49697,Elmore County,ID,16039,H1,0.598312345,0.432516926
83633,42.969692,-115.17427,Elmore County,ID,16039,H1,0.598312345,0.432516926
83647,43.208029,-115.62345,Elmore County,ID,16039,H1,0.598312345,0.432516926
83648,43.06997,-115.85201,Elmore County,ID,16039,H1,0.598312345,0.432516926
43116,39.768502,-83.06007,Pickaway County,OH,39129,H1,0.602742373,0.433081757
43117,39.773025,-83.199472,Pickaway County,OH,39129,H1,0.602742373,0.433081757
43156,39.554697,-82.77917,Pickaway County,OH,39129,H1,0.602742373,0.433081757
36020,32.496067,-86.33073,Elmore County,AL,1051,H1,0.652322416,0.433244739
36024,32.697561,-86.016,Elmore County,AL,1051,H1,0.652322416,0.433244739
36025,32.538878,-86.33358,Elmore County,AL,1051,H1,0.652322416,0.433244739
36092,32.592889,-86.21902,Elmore County,AL,1051,H1,0.652322416,0.433244739
36093,32.505741,-86.15644,Elmore County,AL,1051,H1,0.652322416,0.433244739
54216,44.456022,-87.54429,Kewaunee County,WI,55061,H1,0.596928254,0.433328871
31309,31.873145,-81.42676,Liberty County,GA,13179,H1,0.605346647,0.43512472
31314,31.868699,-81.61083,Liberty County,GA,13179,H1,0.605346647,0.43512472
31315,31.886944,-81.60109,Liberty County,GA,13179,H1,0.605346647,0.43512472
31320,31.788811,-81.37637,Liberty County,GA,13179,H1,0.605346647,0.43512472
31323,31.658252,-81.48778,Liberty County,GA,13179,H1,0.605346647,0.43512472
31333,31.77789,-81.64534,Liberty County,GA,13179,H1,0.605346647,0.43512472
47104,38.539899,-85.421753,Clark County,IN,18019,H1,0.637412824,0.435332933
47111,38.453813,-85.65443,Clark County,IN,18019,H1,0.637412824,0.435332933
47129,38.303945,-85.76787,Clark County,IN,18019,H1,0.637412824,0.435332933
47130,38.309105,-85.72035,Clark County,IN,18019,H1,0.637412824,0.435332933
47141,38.543388,-85.60373,Clark County,IN,18019,H1,0.637412824,0.435332933
47143,38.473919,-85.76702,Clark County,IN,18019,H1,0.637412824,0.435332933
47162,38.548693,-85.49124,Clark County,IN,18019,H1,0.637412824,0.435332933
47163,38.544512,-85.66831,Clark County,IN,18019,H1,0.637412824,0.435332933
47190,38.437021,-85.704973,Clark County,IN,18019,H1,0.637412824,0.435332933
46111,39.538087,-86.36991,Morgan County,IN,18109,H1,0.597719271,0.435538826
46125,39.522181,-86.64102,Morgan County,IN,18109,H1,0.597719271,0.435538826
46166,39.416815,-86.58507,Morgan County,IN,18109,H1,0.597719271,0.435538826
50028,41.820644,-93.14743,Jasper County,IA,19099,H1,0.598832655,0.435891702
50127,41.777174,-93.21383,Jasper County,IA,19099,H1,0.598832655,0.435891702
50135,41.736358,-92.89481,Jasper County,IA,19099,H1,0.598832655,0.435891702
50137,41.607887,-92.90573,Jasper County,IA,19099,H1,0.598832655,0.435891702
50208,41.702148,-93.04467,Jasper County,IA,19099,H1,0.598832655,0.435891702
21901,39.593813,-75.95602,Cecil County,MD,24015,H1,0.650455702,0.436809037
21902,39.553014,-76.06542,Cecil County,MD,24015,H1,0.650455702,0.436809037
21903,39.571003,-76.05077,Cecil County,MD,24015,H1,0.650455702,0.436809037
21904,39.61881,-76.0853,Cecil County,MD,24015,H1,0.650455702,0.436809037
21911,39.694974,-76.05395,Cecil County,MD,24015,H1,0.650455702,0.436809037
21912,39.44474,-75.80203,Cecil County,MD,24015,H1,0.650455702,0.436809037
21913,39.402919,-75.86943,Cecil County,MD,24015,H1,0.650455702,0.436809037
21914,39.572476,-75.97904,Cecil County,MD,24015,H1,0.650455702,0.436809037
21915,39.523096,-75.84155,Cecil County,MD,24015,H1,0.650455702,0.436809037
21916,39.541512,-75.999972,Cecil County,MD,24015,H1,0.650455702,0.436809037
21917,39.671671,-76.0972,Cecil County,MD,24015,H1,0.650455702,0.436809037
21918,39.679246,-76.15464,Cecil County,MD,24015,H1,0.650455702,0.436809037
21919,39.425542,-75.96164,Cecil County,MD,24015,H1,0.650455702,0.436809037
21920,39.658943,-75.82314,Cecil County,MD,24015,H1,0.650455702,0.436809037
21921,39.626736,-75.84294,Cecil County,MD,24015,H1,0.650455702,0.436809037
21922,39.593612,-75.947332,Cecil County,MD,24015,H1,0.650455702,0.436809037
21930,39.365119,-75.88499,Cecil County,MD,24015,H1,0.650455702,0.436809037
72007,34.998573,-91.98417,Lonoke County,AR,5085,H1,0.606123808,0.436987777
72037,34.541185,-91.875767,Lonoke County,AR,5085,H1,0.606123808,0.436987777
72083,34.604268,-92.01479,Lonoke County,AR,5085,H1,0.606123808,0.436987777
65042,38.674914,-92.610941,Moniteau County,MO,29135,H1,0.62513571,0.437843119
65050,38.543408,-92.69655,Moniteau County,MO,29135,H1,0.62513571,0.437843119
65055,38.674914,-92.610941,Moniteau County,MO,29135,H1,0.62513571,0.437843119
63342,38.605967,-90.996216,Warren County,MO,29219,H1,0.602042513,0.438350379
63378,38.770187,-91.188586,Warren County,MO,29219,H1,0.602042513,0.438350379
47107,38.190314,-86.115257,Harrison County,IN,18061,H1,0.646862095,0.43869842
47110,38.096971,-86.172327,Harrison County,IN,18061,H1,0.646862095,0.43869842
47112,38.208144,-86.12978,Harrison County,IN,18061,H1,0.646862095,0.43869842
47114,38.287227,-86.06805,Harrison County,IN,18061,H1,0.646862095,0.43869842
47115,38.350106,-86.22652,Harrison County,IN,18061,H1,0.646862095,0.43869842
47135,38.038838,-86.07212,Harrison County,IN,18061,H1,0.646862095,0.43869842
47142,38.079482,-86.23083,Harrison County,IN,18061,H1,0.646862095,0.43869842
47160,38.165541,-86.05223,Harrison County,IN,18061,H1,0.646862095,0.43869842
47161,38.312878,-86.09478,Harrison County,IN,18061,H1,0.646862095,0.43869842
47166,38.313345,-86.16656,Harrison County,IN,18061,H1,0.646862095,0.43869842
5441,44.772886,-72.78854,Franklin County,VT,50011,H1,0.62640328,0.439068191
5447,44.824855,-72.895849,Franklin County,VT,50011,H1,0.62640328,0.439068191
5448,44.751801,-72.88247,Franklin County,VT,50011,H1,0.62640328,0.439068191
5450,44.885689,-72.78992,Franklin County,VT,50011,H1,0.62640328,0.439068191
5454,44.693805,-73.04099,Franklin County,VT,50011,H1,0.62640328,0.439068191
5455,44.801734,-72.96213,Franklin County,VT,50011,H1,0.62640328,0.439068191
5457,44.961552,-72.89351,Franklin County,VT,50011,H1,0.62640328,0.439068191
5459,44.941617,-73.03056,Franklin County,VT,50011,H1,0.62640328,0.439068191
5460,44.974765,-73.105205,Franklin County,VT,50011,H1,0.62640328,0.439068191
5470,44.824855,-72.895849,Franklin County,VT,50011,H1,0.62640328,0.439068191
5478,44.807555,-73.09077,Franklin County,VT,50011,H1,0.62640328,0.439068191
5479,44.824855,-72.895849,Franklin County,VT,50011,H1,0.62640328,0.439068191
5481,44.824855,-72.895849,Franklin County,VT,50011,H1,0.62640328,0.439068191
5483,44.884125,-72.9751,Franklin County,VT,50011,H1,0.62640328,0.439068191
5485,44.905573,-72.963154,Franklin County,VT,50011,H1,0.62640328,0.439068191
5488,44.930163,-73.12099,Franklin County,VT,50011,H1,0.62640328,0.439068191
50033,41.360357,-93.79219,Madison County,IA,19121,H1,0.646964391,0.440092197
50218,41.348815,-93.88068,Madison County,IA,19121,H1,0.646964391,0.440092197
27527,,,Johnston County,NC,37101,H1,0.671061434,0.440112093
27555,35.562142,-78.20349,Johnston County,NC,37101,H1,0.671061434,0.440112093
27568,35.511864,-78.24273,Johnston County,NC,37101,H1,0.671061434,0.440112093
27576,35.557966,-78.26479,Johnston County,NC,37101,H1,0.671061434,0.440112093
27577,35.506459,-78.34446,Johnston County,NC,37101,H1,0.671061434,0.440112093
27593,35.590731,-78.360723,Johnston County,NC,37101,H1,0.671061434,0.440112093
47022,39.206203,-84.94922,Dearborn County,IN,18029,H1,0.586426786,0.440591535
47025,39.129059,-84.85887,Dearborn County,IN,18029,H1,0.586426786,0.440591535
54610,44.362741,-91.85287,Buffalo County,WI,55011,H1,0.663920973,0.441371286
54622,44.248179,-91.83124,Buffalo County,WI,55011,H1,0.663920973,0.441371286
54629,44.13288,-91.67722,Buffalo County,WI,55011,H1,0.663920973,0.441371286
54743,44.311074,-91.806396,Buffalo County,WI,55011,H1,0.663920973,0.441371286
54756,44.451724,-91.95785,Buffalo County,WI,55011,H1,0.663920973,0.441371286
81648,40.011447,-108.77528,Rio Blanco County,CO,8103,H1,0.649801764,0.441446378
78330,27.782267,-97.90134,Nueces County,TX,48355,H1,0.586808423,0.607946108
78339,27.807025,-97.79801,Nueces County,TX,48355,H1,0.586808423,0.607946108
78343,27.60549,-97.78572,Nueces County,TX,48355,H1,0.586808423,0.607946108
78347,27.593816,-97.46214,Nueces County,TX,48355,H1,0.586808423,0.607946108
78351,27.672549,-97.75105,Nueces County,TX,48355,H1,0.586808423,0.607946108
78373,27.818477,-97.07998,Nueces County,TX,48355,H1,0.586808423,0.607946108
78401,27.795805,-97.40019,Nueces County,TX,48355,H1,0.586808423,0.607946108
78402,27.829732,-97.4016,Nueces County,TX,48355,H1,0.586808423,0.607946108
78404,27.770056,-97.4001,Nueces County,TX,48355,H1,0.586808423,0.607946108
78405,27.777922,-97.42695,Nueces County,TX,48355,H1,0.586808423,0.607946108
78406,27.776304,-97.51253,Nueces County,TX,48355,H1,0.586808423,0.607946108
78407,27.802404,-97.42599,Nueces County,TX,48355,H1,0.586808423,0.607946108
78408,27.796171,-97.43796,Nueces County,TX,48355,H1,0.586808423,0.607946108
78409,27.806753,-97.50971,Nueces County,TX,48355,H1,0.586808423,0.607946108
78410,27.846568,-97.59435,Nueces County,TX,48355,H1,0.586808423,0.607946108
78411,27.733058,-97.38542,Nueces County,TX,48355,H1,0.586808423,0.607946108
78412,27.709309,-97.35225,Nueces County,TX,48355,H1,0.586808423,0.607946108
78413,27.687792,-97.40165,Nueces County,TX,48355,H1,0.586808423,0.607946108
78414,27.672334,-97.37051,Nueces County,TX,48355,H1,0.586808423,0.607946108
78415,27.727083,-97.4289,Nueces County,TX,48355,H1,0.586808423,0.607946108
78416,27.752356,-97.43465,Nueces County,TX,48355,H1,0.586808423,0.607946108
78417,27.729855,-97.44503,Nueces County,TX,48355,H1,0.586808423,0.607946108
78418,27.633433,-97.26792,Nueces County,TX,48355,H1,0.586808423,0.607946108
78419,27.723611,-97.380884,Nueces County,TX,48355,H1,0.586808423,0.607946108
78469,27.777,-97.463213,Nueces County,TX,48355,H1,0.586808423,0.607946108
78002,29.288108,-98.72878,Bexar County,TX,48029,H1,0.579378561,0.608366699
78054,29.325602,-98.732187,Bexar County,TX,48029,H1,0.579378561,0.608366699
78109,29.50198,-98.30582,Bexar County,TX,48029,H1,0.579378561,0.608366699
78148,29.550223,-98.29936,Bexar County,TX,48029,H1,0.579378561,0.608366699
78150,29.437532,-98.461582,Bexar County,TX,48029,H1,0.579378561,0.608366699
78201,29.466781,-98.52519,Bexar County,TX,48029,H1,0.579378561,0.608366699
78202,29.428132,-98.46279,Bexar County,TX,48029,H1,0.579378561,0.608366699
78203,29.414983,-98.46239,Bexar County,TX,48029,H1,0.579378561,0.608366699
78204,29.403583,-98.5063,Bexar County,TX,48029,H1,0.579378561,0.608366699
78205,29.425932,-98.48931,Bexar County,TX,48029,H1,0.579378561,0.608366699
78206,29.437532,-98.461582,Bexar County,TX,48029,H1,0.579378561,0.608366699
78207,29.423932,-98.5235,Bexar County,TX,48029,H1,0.579378561,0.608366699
78208,29.439832,-98.45879,Bexar County,TX,48029,H1,0.579378561,0.608366699
78209,29.48618,-98.4568,Bexar County,TX,48029,H1,0.579378561,0.608366699
78210,29.397934,-98.46669,Bexar County,TX,48029,H1,0.579378561,0.608366699
78211,29.362185,-98.54644,Bexar County,TX,48029,H1,0.579378561,0.608366699
78212,29.460381,-98.49649,Bexar County,TX,48029,H1,0.579378561,0.608366699
78213,29.510562,-98.52203,Bexar County,TX,48029,H1,0.579378561,0.608366699
78214,29.363335,-98.49049,Bexar County,TX,48029,H1,0.579378561,0.608366699
78215,29.438032,-98.48114,Bexar County,TX,48029,H1,0.579378561,0.608366699
78216,29.528515,-98.49219,Bexar County,TX,48029,H1,0.579378561,0.608366699
78217,29.543865,-98.41755,Bexar County,TX,48029,H1,0.579378561,0.608366699
78218,29.49428,-98.40431,Bexar County,TX,48029,H1,0.579378561,0.608366699
78219,29.448379,-98.39908,Bexar County,TX,48029,H1,0.579378561,0.608366699
78220,29.411583,-98.41833,Bexar County,TX,48029,H1,0.579378561,0.608366699
78221,29.326586,-98.50217,Bexar County,TX,48029,H1,0.579378561,0.608366699
78222,29.379902,-98.38926,Bexar County,TX,48029,H1,0.579378561,0.608366699
78223,29.352352,-98.43215,Bexar County,TX,48029,H1,0.579378561,0.608366699
78224,29.333436,-98.53934,Bexar County,TX,48029,H1,0.579378561,0.608366699
78225,29.387734,-98.52492,Bexar County,TX,48029,H1,0.579378561,0.608366699
78226,29.392167,-98.55468,Bexar County,TX,48029,H1,0.579378561,0.608366699
78227,29.405424,-98.63832,Bexar County,TX,48029,H1,0.579378561,0.608366699
78228,29.457281,-98.5665,Bexar County,TX,48029,H1,0.579378561,0.608366699
78229,29.499454,-98.57166,Bexar County,TX,48029,H1,0.579378561,0.608366699
78230,29.539562,-98.55253,Bexar County,TX,48029,H1,0.579378561,0.608366699
78231,29.574677,-98.53946,Bexar County,TX,48029,H1,0.579378561,0.608366699
78232,29.584698,-98.46987,Bexar County,TX,48029,H1,0.579378561,0.608366699
78233,29.552128,-98.36775,Bexar County,TX,48029,H1,0.579378561,0.608366699
78234,29.457389,-98.45537,Bexar County,TX,48029,H1,0.579378561,0.608366699
78235,29.33906,-98.42793,Bexar County,TX,48029,H1,0.579378561,0.608366699
78236,29.389767,-98.61251,Bexar County,TX,48029,H1,0.579378561,0.608366699
78237,29.422583,-98.56584,Bexar County,TX,48029,H1,0.579378561,0.608366699
78238,29.479874,-98.61509,Bexar County,TX,48029,H1,0.579378561,0.608366699
78239,29.51613,-98.36161,Bexar County,TX,48029,H1,0.579378561,0.608366699
78240,29.518413,-98.60869,Bexar County,TX,48029,H1,0.579378561,0.608366699
78242,29.353735,-98.61423,Bexar County,TX,48029,H1,0.579378561,0.608366699
78243,29.437532,-98.461582,Bexar County,TX,48029,H1,0.579378561,0.608366699
78244,29.475598,-98.35434,Bexar County,TX,48029,H1,0.579378561,0.608366699
78245,29.412338,-98.70484,Bexar County,TX,48029,H1,0.579378561,0.608366699
78246,29.437532,-98.461582,Bexar County,TX,48029,H1,0.579378561,0.608366699
78247,29.581304,-98.40889,Bexar County,TX,48029,H1,0.579378561,0.608366699
78248,29.589826,-98.52524,Bexar County,TX,48029,H1,0.579378561,0.608366699
78249,29.569934,-98.61282,Bexar County,TX,48029,H1,0.579378561,0.608366699
78250,29.510204,-98.66784,Bexar County,TX,48029,H1,0.579378561,0.608366699
78251,29.466061,-98.67004,Bexar County,TX,48029,H1,0.579378561,0.608366699
78252,29.335577,-98.70173,Bexar County,TX,48029,H1,0.579378561,0.608366699
78255,29.665822,-98.66812,Bexar County,TX,48029,H1,0.579378561,0.608366699
78256,29.623533,-98.62493,Bexar County,TX,48029,H1,0.579378561,0.608366699
78257,29.646618,-98.6099,Bexar County,TX,48029,H1,0.579378561,0.608366699
78258,29.649797,-98.50406,Bexar County,TX,48029,H1,0.579378561,0.608366699
78259,29.627332,-98.42781,Bexar County,TX,48029,H1,0.579378561,0.608366699
78260,29.707273,-98.47969,Bexar County,TX,48029,H1,0.579378561,0.608366699
78261,29.698045,-98.42624,Bexar County,TX,48029,H1,0.579378561,0.608366699
78263,29.358153,-98.31978,Bexar County,TX,48029,H1,0.579378561,0.608366699
78284,29.442632,-98.491344,Bexar County,TX,48029,H1,0.579378561,0.608366699
78285,29.437532,-98.461582,Bexar County,TX,48029,H1,0.579378561,0.608366699
78288,29.437532,-98.461582,Bexar County,TX,48029,H1,0.579378561,0.608366699
29911,32.928131,-81.16602,Hampton County,SC,45049,H1,0.597336114,0.60881571
29918,32.744565,-81.24794,Hampton County,SC,45049,H1,0.597336114,0.60881571
29921,32.67553,-81.17208,Hampton County,SC,45049,H1,0.597336114,0.60881571
29922,32.593295,-81.24035,Hampton County,SC,45049,H1,0.597336114,0.60881571
29923,32.866195,-81.24215,Hampton County,SC,45049,H1,0.597336114,0.60881571
29924,32.868065,-81.10998,Hampton County,SC,45049,H1,0.597336114,0.60881571
29932,32.818844,-81.30864,Hampton County,SC,45049,H1,0.597336114,0.60881571
29933,32.788773,-81.126913,Hampton County,SC,45049,H1,0.597336114,0.60881571
29939,32.669734,-81.2447,Hampton County,SC,45049,H1,0.597336114,0.60881571
29944,32.822292,-81.05236,Hampton County,SC,45049,H1,0.597336114,0.60881571
97010,45.582981,-122.101103,Multnomah County,OR,41051,H1,0.600129617,0.608821962
97024,45.542239,-122.44553,Multnomah County,OR,41051,H1,0.600129617,0.608821962
97030,45.507752,-122.4323,Multnomah County,OR,41051,H1,0.600129617,0.608821962
97060,45.529551,-122.39156,Multnomah County,OR,41051,H1,0.600129617,0.608821962
97201,45.49894,-122.68781,Multnomah County,OR,41051,H1,0.600129617,0.608821962
97203,45.589689,-122.73875,Multnomah County,OR,41051,H1,0.600129617,0.608821962
97204,45.51854,-122.6755,Multnomah County,OR,41051,H1,0.600129617,0.608821962
97205,45.52054,-122.68573,Multnomah County,OR,41051,H1,0.600129617,0.608821962
97208,45.532165,-122.564824,Multnomah County,OR,41051,H1,0.600129617,0.608821962
97209,45.52889,-122.68458,Multnomah County,OR,41051,H1,0.600129617,0.608821962
97211,45.56544,-122.64635,Multnomah County,OR,41051,H1,0.600129617,0.608821962
97212,45.54424,-122.64353,Multnomah County,OR,41051,H1,0.600129617,0.608821962
97213,45.53704,-122.59979,Multnomah County,OR,41051,H1,0.600129617,0.608821962
97214,45.51379,-122.6458,Multnomah County,OR,41051,H1,0.600129617,0.608821962
97215,45.514241,-122.60089,Multnomah County,OR,41051,H1,0.600129617,0.608821962
97216,45.515674,-122.56087,Multnomah County,OR,41051,H1,0.600129617,0.608821962
97217,45.574439,-122.68665,Multnomah County,OR,41051,H1,0.600129617,0.608821962
97218,45.56099,-122.59987,Multnomah County,OR,41051,H1,0.600129617,0.608821962
97220,45.546205,-122.56027,Multnomah County,OR,41051,H1,0.600129617,0.608821962
97227,45.543831,-122.67497,Multnomah County,OR,41051,H1,0.600129617,0.608821962
97230,45.539473,-122.50488,Multnomah County,OR,41051,H1,0.600129617,0.608821962
97232,45.52874,-122.6446,Multnomah County,OR,41051,H1,0.600129617,0.608821962
97233,45.513242,-122.49985,Multnomah County,OR,41051,H1,0.600129617,0.608821962
97236,45.474722,-122.50997,Multnomah County,OR,41051,H1,0.600129617,0.608821962
97238,45.580557,-122.374776,Multnomah County,OR,41051,H1,0.600129617,0.608821962
97239,45.488031,-122.693796,Multnomah County,OR,41051,H1,0.600129617,0.608821962
97258,45.580557,-122.374776,Multnomah County,OR,41051,H1,0.600129617,0.608821962
97266,45.478641,-122.56233,Multnomah County,OR,41051,H1,0.600129617,0.608821962
75503,33.476844,-94.09637,Bowie County,TX,48037,H1,0.603485606,0.60925309
75559,33.515778,-94.61355,Bowie County,TX,48037,H1,0.603485606,0.60925309
75561,33.480224,-94.2648,Bowie County,TX,48037,H1,0.603485606,0.60925309
75567,33.328596,-94.31589,Bowie County,TX,48037,H1,0.603485606,0.60925309
75569,33.441774,-94.12531,Bowie County,TX,48037,H1,0.603485606,0.60925309
75570,33.465282,-94.41954,Bowie County,TX,48037,H1,0.603485606,0.60925309
75573,33.353249,-94.25971,Bowie County,TX,48037,H1,0.603485606,0.60925309
75574,33.328878,-94.53657,Bowie County,TX,48037,H1,0.603485606,0.60925309
75599,33.476552,-94.39495,Bowie County,TX,48037,H1,0.603485606,0.60925309
1029,42.175896,-73.04204,Berkshire County,MA,25003,H4,0.598557725,0.609868866
1201,42.45384,-73.254,Berkshire County,MA,25003,H4,0.598557725,0.609868866
1220,42.619727,-73.11842,Berkshire County,MA,25003,H4,0.598557725,0.609868866
1222,42.057496,-73.32177,Berkshire County,MA,25003,H4,0.598557725,0.609868866
1223,42.314449,-73.09335,Berkshire County,MA,25003,H4,0.598557725,0.609868866
1224,42.3929,-73.228483,Berkshire County,MA,25003,H4,0.598557725,0.609868866
1225,42.551731,-73.1653,Berkshire County,MA,25003,H4,0.598557725,0.609868866
1226,42.476575,-73.11547,Berkshire County,MA,25003,H4,0.598557725,0.609868866
1229,42.279292,-73.343545,Berkshire County,MA,25003,H4,0.598557725,0.609868866
1230,42.189715,-73.35249,Berkshire County,MA,25003,H4,0.598557725,0.609868866
1236,42.266874,-73.36236,Berkshire County,MA,25003,H4,0.598557725,0.609868866
1237,42.557346,-73.24364,Berkshire County,MA,25003,H4,0.598557725,0.609868866
1238,42.299263,-73.2327,Berkshire County,MA,25003,H4,0.598557725,0.609868866
1240,42.36237,-73.27683,Berkshire County,MA,25003,H4,0.598557725,0.609868866
1242,42.336557,-73.24599,Berkshire County,MA,25003,H4,0.598557725,0.609868866
1244,42.139104,-73.20312,Berkshire County,MA,25003,H4,0.598557725,0.609868866
1245,42.180659,-73.20849,Berkshire County,MA,25003,H4,0.598557725,0.609868866
1247,42.696064,-73.10145,Berkshire County,MA,25003,H4,0.598557725,0.609868866
1252,42.198648,-73.446234,Berkshire County,MA,25003,H4,0.598557725,0.609868866
1253,42.198403,-73.10205,Berkshire County,MA,25003,H4,0.598557725,0.609868866
1254,42.374711,-73.36336,Berkshire County,MA,25003,H4,0.598557725,0.609868866
1255,42.088973,-73.12444,Berkshire County,MA,25003,H4,0.598557725,0.609868866
1256,42.592506,-73.01123,Berkshire County,MA,25003,H4,0.598557725,0.609868866
1257,42.102694,-73.36591,Berkshire County,MA,25003,H4,0.598557725,0.609868866
1258,42.103122,-73.45734,Berkshire County,MA,25003,H4,0.598557725,0.609868866
1259,42.0645,-73.24674,Berkshire County,MA,25003,H4,0.598557725,0.609868866
1260,42.286586,-73.313274,Berkshire County,MA,25003,H4,0.598557725,0.609868866
1262,42.283216,-73.31423,Berkshire County,MA,25003,H4,0.598557725,0.609868866
1263,42.3929,-73.228483,Berkshire County,MA,25003,H4,0.598557725,0.609868866
1264,42.224905,-73.20394,Berkshire County,MA,25003,H4,0.598557725,0.609868866
1266,42.328535,-73.36407,Berkshire County,MA,25003,H4,0.598557725,0.609868866
1267,42.689962,-73.22355,Berkshire County,MA,25003,H4,0.598557725,0.609868866
1270,42.443726,-73.116127,Berkshire County,MA,25003,H4,0.598557725,0.609868866
1343,42.642666,-72.986231,Berkshire County,MA,25003,H4,0.598557725,0.609868866
91901,32.823102,-116.73864,San Diego County,CA,6073,H1,0.617757263,0.610673588
91902,32.663803,-117.02456,San Diego County,CA,6073,H1,0.617757263,0.610673588
91905,32.672239,-116.31497,San Diego County,CA,6073,H1,0.617757263,0.610673588
91906,32.664307,-116.46513,San Diego County,CA,6073,H1,0.617757263,0.610673588
91910,32.638654,-117.06686,San Diego County,CA,6073,H1,0.617757263,0.610673588
91911,32.608799,-117.0607,San Diego County,CA,6073,H1,0.617757263,0.610673588
91913,32.642486,-116.98973,San Diego County,CA,6073,H1,0.617757263,0.610673588
91914,32.662563,-116.95413,San Diego County,CA,6073,H1,0.617757263,0.610673588
91915,32.638072,-116.95195,San Diego County,CA,6073,H1,0.617757263,0.610673588
91916,32.890384,-116.62459,San Diego County,CA,6073,H1,0.617757263,0.610673588
91917,32.616539,-116.71187,San Diego County,CA,6073,H1,0.617757263,0.610673588
91932,32.579555,-117.11708,San Diego County,CA,6073,H1,0.617757263,0.610673588
91934,32.624424,-116.17025,San Diego County,CA,6073,H1,0.617757263,0.610673588
91935,32.718186,-116.82606,San Diego County,CA,6073,H1,0.617757263,0.610673588
91941,32.761801,-117.01273,San Diego County,CA,6073,H1,0.617757263,0.610673588
91942,32.785,-117.0186,San Diego County,CA,6073,H1,0.617757263,0.610673588
91945,32.733451,-117.0337,San Diego County,CA,6073,H1,0.617757263,0.610673588
91948,32.875267,-116.42826,San Diego County,CA,6073,H1,0.617757263,0.610673588
91950,32.670903,-117.09272,San Diego County,CA,6073,H1,0.617757263,0.610673588
91962,32.773317,-116.49139,San Diego County,CA,6073,H1,0.617757263,0.610673588
91963,32.620782,-116.60671,San Diego County,CA,6073,H1,0.617757263,0.610673588
91977,32.721145,-116.99612,San Diego County,CA,6073,H1,0.617757263,0.610673588
91978,32.732539,-116.95091,San Diego County,CA,6073,H1,0.617757263,0.610673588
91980,32.588485,-116.63034,San Diego County,CA,6073,H1,0.617757263,0.610673588
92003,33.289265,-117.20011,San Diego County,CA,6073,H1,0.617757263,0.610673588
92004,33.184028,-116.26597,San Diego County,CA,6073,H1,0.617757263,0.610673588
92007,33.026742,-117.27816,San Diego County,CA,6073,H1,0.617757263,0.610673588
92008,33.158137,-117.32646,San Diego County,CA,6073,H1,0.617757263,0.610673588
92009,33.097841,-117.26744,San Diego County,CA,6073,H1,0.617757263,0.610673588
92010,,,San Diego County,CA,6073,H1,0.617757263,0.610673588
92011,,,San Diego County,CA,6073,H1,0.617757263,0.610673588
92014,32.961812,-117.25967,San Diego County,CA,6073,H1,0.617757263,0.610673588
92019,32.788736,-116.90487,San Diego County,CA,6073,H1,0.617757263,0.610673588
92020,32.7991,-116.97334,San Diego County,CA,6073,H1,0.617757263,0.610673588
92021,32.8201,-116.91234,San Diego County,CA,6073,H1,0.617757263,0.610673588
92024,33.053092,-117.26855,San Diego County,CA,6073,H1,0.617757263,0.610673588
92025,33.106862,-117.07077,San Diego County,CA,6073,H1,0.617757263,0.610673588
92026,33.181543,-117.11136,San Diego County,CA,6073,H1,0.617757263,0.610673588
92027,33.142706,-117.03049,San Diego County,CA,6073,H1,0.617757263,0.610673588
92029,33.087868,-117.11558,San Diego County,CA,6073,H1,0.617757263,0.610673588
92036,33.02757,-116.53109,San Diego County,CA,6073,H1,0.617757263,0.610673588
92037,32.838761,-117.26159,San Diego County,CA,6073,H1,0.617757263,0.610673588
92040,32.873849,-116.90477,San Diego County,CA,6073,H1,0.617757263,0.610673588
92054,33.202463,-117.36077,San Diego County,CA,6073,H1,0.617757263,0.610673588
92055,33.016928,-116.846046,San Diego County,CA,6073,H1,0.617757263,0.610673588
92056,33.195354,-117.28232,San Diego County,CA,6073,H1,0.617757263,0.610673588
92057,33.240926,-117.29851,San Diego County,CA,6073,H1,0.617757263,0.610673588
92058,33.016928,-116.846046,San Diego County,CA,6073,H1,0.617757263,0.610673588
92059,33.369249,-117.07236,San Diego County,CA,6073,H1,0.617757263,0.610673588
92060,33.308217,-116.8471,San Diego County,CA,6073,H1,0.617757263,0.610673588
92061,33.311881,-116.96499,San Diego County,CA,6073,H1,0.617757263,0.610673588
92064,32.973645,-117.03701,San Diego County,CA,6073,H1,0.617757263,0.610673588
92065,33.035844,-116.8513,San Diego County,CA,6073,H1,0.617757263,0.610673588
92066,33.209313,-116.54244,San Diego County,CA,6073,H1,0.617757263,0.610673588
92067,33.016492,-117.20264,San Diego County,CA,6073,H1,0.617757263,0.610673588
92069,33.144908,-117.17128,San Diego County,CA,6073,H1,0.617757263,0.610673588
92070,33.166768,-116.71061,San Diego County,CA,6073,H1,0.617757263,0.610673588
92071,32.84681,-116.98983,San Diego County,CA,6073,H1,0.617757263,0.610673588
92075,32.997543,-117.26087,San Diego County,CA,6073,H1,0.617757263,0.610673588
92078,33.122029,-117.15605,San Diego County,CA,6073,H1,0.617757263,0.610673588
92081,,,San Diego County,CA,6073,H1,0.617757263,0.610673588
92082,33.261748,-117.01027,San Diego County,CA,6073,H1,0.617757263,0.610673588
92083,33.179587,-117.24461,San Diego County,CA,6073,H1,0.617757263,0.610673588
92084,33.213309,-117.21474,San Diego County,CA,6073,H1,0.617757263,0.610673588
92086,33.337152,-116.69355,San Diego County,CA,6073,H1,0.617757263,0.610673588
92091,32.993541,-117.21311,San Diego County,CA,6073,H1,0.617757263,0.610673588
92092,33.016928,-116.846046,San Diego County,CA,6073,H1,0.617757263,0.610673588
92093,33.016928,-116.846046,San Diego County,CA,6073,H1,0.617757263,0.610673588
92101,32.719601,-117.16246,San Diego County,CA,6073,H1,0.617757263,0.610673588
92102,32.714992,-117.12537,San Diego County,CA,6073,H1,0.617757263,0.610673588
92103,32.746018,-117.16715,San Diego County,CA,6073,H1,0.617757263,0.610673588
92104,32.742892,-117.12774,San Diego County,CA,6073,H1,0.617757263,0.610673588
92105,32.741256,-117.0951,San Diego County,CA,6073,H1,0.617757263,0.610673588
92106,32.7259,-117.23079,San Diego County,CA,6073,H1,0.617757263,0.610673588
92107,32.7409,-117.24434,San Diego County,CA,6073,H1,0.617757263,0.610673588
92108,32.7736,-117.13785,San Diego County,CA,6073,H1,0.617757263,0.610673588
92109,32.791246,-117.24343,San Diego County,CA,6073,H1,0.617757263,0.610673588
92110,32.766482,-117.20077,San Diego County,CA,6073,H1,0.617757263,0.610673588
92111,32.804972,-117.16871,San Diego County,CA,6073,H1,0.617757263,0.610673588
92113,32.697402,-117.12001,San Diego County,CA,6073,H1,0.617757263,0.610673588
92114,32.706954,-117.0542,San Diego County,CA,6073,H1,0.617757263,0.610673588
92115,32.7603,-117.07031,San Diego County,CA,6073,H1,0.617757263,0.610673588
92116,32.76235,-117.12246,San Diego County,CA,6073,H1,0.617757263,0.610673588
92117,32.823865,-117.19966,San Diego County,CA,6073,H1,0.617757263,0.610673588
92118,32.682727,-117.17441,San Diego County,CA,6073,H1,0.617757263,0.610673588
92119,32.80225,-117.02431,San Diego County,CA,6073,H1,0.617757263,0.610673588
92120,32.794449,-117.07221,San Diego County,CA,6073,H1,0.617757263,0.610673588
92121,32.899996,-117.20722,San Diego County,CA,6073,H1,0.617757263,0.610673588
92122,32.856447,-117.21143,San Diego County,CA,6073,H1,0.617757263,0.610673588
92123,32.803799,-117.13595,San Diego County,CA,6073,H1,0.617757263,0.610673588
92124,32.822815,-117.09844,San Diego County,CA,6073,H1,0.617757263,0.610673588
92126,32.914346,-117.14116,San Diego County,CA,6073,H1,0.617757263,0.610673588
92127,33.022384,-117.10694,San Diego County,CA,6073,H1,0.617757263,0.610673588
92128,32.998855,-117.07054,San Diego County,CA,6073,H1,0.617757263,0.610673588
92129,32.961014,-117.1251,San Diego County,CA,6073,H1,0.617757263,0.610673588
92130,32.946776,-117.21918,San Diego County,CA,6073,H1,0.617757263,0.610673588
92131,32.918035,-117.08438,San Diego County,CA,6073,H1,0.617757263,0.610673588
92132,32.643703,-117.138414,San Diego County,CA,6073,H1,0.617757263,0.610673588
92134,32.562106,-117.07166,San Diego County,CA,6073,H1,0.617757263,0.610673588
92135,33.016928,-116.846046,San Diego County,CA,6073,H1,0.617757263,0.610673588
92136,32.68342,-117.121913,San Diego County,CA,6073,H1,0.617757263,0.610673588
92139,32.677286,-117.05241,San Diego County,CA,6073,H1,0.617757263,0.610673588
92140,32.74344,-117.200412,San Diego County,CA,6073,H1,0.617757263,0.610673588
92145,32.889139,-117.100486,San Diego County,CA,6073,H1,0.617757263,0.610673588
92147,33.016928,-116.846046,San Diego County,CA,6073,H1,0.617757263,0.610673588
92152,33.016928,-116.846046,San Diego County,CA,6073,H1,0.617757263,0.610673588
92154,32.574398,-117.05633,San Diego County,CA,6073,H1,0.617757263,0.610673588
92155,32.671602,-117.165665,San Diego County,CA,6073,H1,0.617757263,0.610673588
92158,33.016928,-116.846046,San Diego County,CA,6073,H1,0.617757263,0.610673588
92161,32.871846,-117.229119,San Diego County,CA,6073,H1,0.617757263,0.610673588
92173,32.556264,-117.05057,San Diego County,CA,6073,H1,0.617757263,0.610673588
92179,32.572602,-116.918724,San Diego County,CA,6073,H1,0.617757263,0.610673588
92182,32.775088,-117.076176,San Diego County,CA,6073,H1,0.617757263,0.610673588
92197,33.016928,-116.846046,San Diego County,CA,6073,H1,0.617757263,0.610673588
92199,32.751575,-117.191848,San Diego County,CA,6073,H1,0.617757263,0.610673588
77613,30.043401,-94.35853,Jefferson County,TX,48245,H1,0.666940158,0.611015305
77619,29.947563,-93.91857,Jefferson County,TX,48245,H1,0.666940158,0.611015305
77622,29.870794,-94.2896,Jefferson County,TX,48245,H1,0.666940158,0.611015305
77627,29.974013,-93.99986,Jefferson County,TX,48245,H1,0.666940158,0.611015305
77629,30.031927,-94.42374,Jefferson County,TX,48245,H1,0.666940158,0.611015305
77640,29.879796,-93.95575,Jefferson County,TX,48245,H1,0.666940158,0.611015305
77642,29.921564,-93.92694,Jefferson County,TX,48245,H1,0.666940158,0.611015305
77651,29.980863,-93.96038,Jefferson County,TX,48245,H1,0.666940158,0.611015305
77655,29.732092,-93.90117,Jefferson County,TX,48245,H1,0.666940158,0.611015305
77701,30.074112,-94.10358,Jefferson County,TX,48245,H1,0.666940158,0.611015305
77702,30.085112,-94.12607,Jefferson County,TX,48245,H1,0.666940158,0.611015305
77703,30.112312,-94.11736,Jefferson County,TX,48245,H1,0.666940158,0.611015305
77705,30.009609,-94.11401,Jefferson County,TX,48245,H1,0.666940158,0.611015305
77706,30.092679,-94.16377,Jefferson County,TX,48245,H1,0.666940158,0.611015305
77707,30.065029,-94.18031,Jefferson County,TX,48245,H1,0.666940158,0.611015305
77708,30.141361,-94.16488,Jefferson County,TX,48245,H1,0.666940158,0.611015305
77713,30.090135,-94.2467,Jefferson County,TX,48245,H1,0.666940158,0.611015305
31901,32.471492,-84.98005,Muscogee County,GA,13215,H6,0.631855889,0.611482529
31903,32.423311,-84.94879,Muscogee County,GA,13215,H6,0.631855889,0.611482529
31904,32.513391,-84.97753,Muscogee County,GA,13215,H6,0.631855889,0.611482529
31906,32.468442,-84.95128,Muscogee County,GA,13215,H6,0.631855889,0.611482529
31907,32.479492,-84.90942,Muscogee County,GA,13215,H6,0.631855889,0.611482529
31909,32.53554,-84.92583,Muscogee County,GA,13215,H6,0.631855889,0.611482529
31998,32.491005,-84.874123,Muscogee County,GA,13215,H6,0.631855889,0.611482529
31999,32.491005,-84.874123,Muscogee County,GA,13215,H6,0.631855889,0.611482529
61451,40.953365,-89.94259,Peoria County,IL,17143,H1,0.606815024,0.611977303
61517,40.816162,-89.84131,Peoria County,IL,17143,H1,0.606815024,0.611977303
61525,40.849036,-89.65554,Peoria County,IL,17143,H1,0.606815024,0.611977303
61528,40.776845,-89.7401,Peoria County,IL,17143,H1,0.606815024,0.611977303
61536,40.690205,-89.78042,Peoria County,IL,17143,H1,0.606815024,0.611977303
61539,40.558329,-89.76891,Peoria County,IL,17143,H1,0.606815024,0.611977303
61547,40.619174,-89.72628,Peoria County,IL,17143,H1,0.606815024,0.611977303
61552,40.817587,-89.56654,Peoria County,IL,17143,H1,0.606815024,0.611977303
61562,40.874269,-89.506695,Peoria County,IL,17143,H1,0.606815024,0.611977303
61569,40.691022,-89.89138,Peoria County,IL,17143,H1,0.606815024,0.611977303
61601,40.693137,-89.589847,Peoria County,IL,17143,H1,0.606815024,0.611977303
61602,40.677987,-89.60864,Peoria County,IL,17143,H1,0.606815024,0.611977303
61603,40.712887,-89.57904,Peoria County,IL,17143,H1,0.606815024,0.611977303
61604,40.709237,-89.63633,Peoria County,IL,17143,H1,0.606815024,0.611977303
61605,40.678037,-89.62737,Peoria County,IL,17143,H1,0.606815024,0.611977303
61606,40.699137,-89.60972,Peoria County,IL,17143,H1,0.606815024,0.611977303
61607,40.642049,-89.67147,Peoria County,IL,17143,H1,0.606815024,0.611977303
61613,40.742537,-89.627948,Peoria County,IL,17143,H1,0.606815024,0.611977303
61614,40.755343,-89.59799,Peoria County,IL,17143,H1,0.606815024,0.611977303
61615,40.764368,-89.6448,Peoria County,IL,17143,H1,0.606815024,0.611977303
61616,40.743266,-89.576628,Peoria County,IL,17143,H1,0.606815024,0.611977303
61625,40.696287,-89.616648,Peoria County,IL,17143,H1,0.606815024,0.611977303
61629,40.692037,-89.588747,Peoria County,IL,17143,H1,0.606815024,0.611977303
61630,40.744179,-89.718401,Peoria County,IL,17143,H1,0.606815024,0.611977303
61633,40.731165,-89.603081,Peoria County,IL,17143,H1,0.606815024,0.611977303
61634,40.689637,-89.592597,Peoria County,IL,17143,H1,0.606815024,0.611977303
61636,40.699937,-89.595147,Peoria County,IL,17143,H1,0.606815024,0.611977303
61637,40.702487,-89.589797,Peoria County,IL,17143,H1,0.606815024,0.611977303
61638,40.796887,-89.611146,Peoria County,IL,17143,H1,0.606815024,0.611977303
61639,40.709837,-89.563646,Peoria County,IL,17143,H1,0.606815024,0.611977303
61641,40.640002,-89.651987,Peoria County,IL,17143,H1,0.606815024,0.611977303
61643,40.744179,-89.718401,Peoria County,IL,17143,H1,0.606815024,0.611977303
76429,32.74154,-98.67089,Stephens County,TX,48429,H1,0.613281075,0.61202948
95003,36.979333,-121.8944,Santa Cruz County,CA,6087,H1,0.670877743,0.61280322
95005,37.084347,-122.08524,Santa Cruz County,CA,6087,H1,0.670877743,0.61280322
95006,37.151813,-122.13679,Santa Cruz County,CA,6087,H1,0.670877743,0.61280322
95007,37.10548,-122.1047,Santa Cruz County,CA,6087,H1,0.670877743,0.61280322
95010,36.9761,-121.95316,Santa Cruz County,CA,6087,H1,0.670877743,0.61280322
95017,37.085986,-122.22638,Santa Cruz County,CA,6087,H1,0.670877743,0.61280322
95018,37.057708,-122.05967,Santa Cruz County,CA,6087,H1,0.670877743,0.61280322
95019,36.935552,-121.77972,Santa Cruz County,CA,6087,H1,0.670877743,0.61280322
95041,37.050798,-122.0569,Santa Cruz County,CA,6087,H1,0.670877743,0.61280322
95060,36.980556,-122.04603,Santa Cruz County,CA,6087,H1,0.670877743,0.61280322
95062,36.9707,-121.99086,Santa Cruz County,CA,6087,H1,0.670877743,0.61280322
95064,37.000199,-122.06026,Santa Cruz County,CA,6087,H1,0.670877743,0.61280322
95065,37.010322,-121.98523,Santa Cruz County,CA,6087,H1,0.670877743,0.61280322
95066,37.057575,-122.01507,Santa Cruz County,CA,6087,H1,0.670877743,0.61280322
95073,37.007916,-121.95072,Santa Cruz County,CA,6087,H1,0.670877743,0.61280322
27010,36.182975,-80.338662,Forsyth County,NC,37067,H1,0.634667787,0.615174864
27023,36.097767,-80.42715,Forsyth County,NC,37067,H1,0.634667787,0.615174864
27040,36.182718,-80.36487,Forsyth County,NC,37067,H1,0.634667787,0.615174864
27051,36.174243,-80.16679,Forsyth County,NC,37067,H1,0.634667787,0.615174864
27094,36.027482,-80.20728,Forsyth County,NC,37067,H1,0.634667787,0.615174864
27099,36.027482,-80.20728,Forsyth County,NC,37067,H1,0.634667787,0.615174864
27101,36.107037,-80.21918,Forsyth County,NC,37067,H1,0.634667787,0.615174864
27103,36.066545,-80.30733,Forsyth County,NC,37067,H1,0.634667787,0.615174864
27104,36.094104,-80.31503,Forsyth County,NC,37067,H1,0.634667787,0.615174864
27105,36.147887,-80.23423,Forsyth County,NC,37067,H1,0.634667787,0.615174864
27106,36.141395,-80.3137,Forsyth County,NC,37067,H1,0.634667787,0.615174864
27108,36.027482,-80.20728,Forsyth County,NC,37067,H1,0.634667787,0.615174864
27109,36.133577,-80.2768,Forsyth County,NC,37067,H1,0.634667787,0.615174864
27110,36.027482,-80.20728,Forsyth County,NC,37067,H1,0.634667787,0.615174864
27111,36.027482,-80.20728,Forsyth County,NC,37067,H1,0.634667787,0.615174864
27150,36.027482,-80.20728,Forsyth County,NC,37067,H1,0.634667787,0.615174864
27152,36.027482,-80.20728,Forsyth County,NC,37067,H1,0.634667787,0.615174864
27155,36.027482,-80.20728,Forsyth County,NC,37067,H1,0.634667787,0.615174864
27157,36.027482,-80.20728,Forsyth County,NC,37067,H1,0.634667787,0.615174864
27199,36.027482,-80.20728,Forsyth County,NC,37067,H1,0.634667787,0.615174864
85003,33.451143,-112.07838,Maricopa County,AZ,4013,H1,0.586203916,0.615678704
85004,33.451093,-112.07057,Maricopa County,AZ,4013,H1,0.586203916,0.615678704
85006,33.466392,-112.04875,Maricopa County,AZ,4013,H1,0.586203916,0.615678704
85007,33.449995,-112.09024,Maricopa County,AZ,4013,H1,0.586203916,0.615678704
85008,33.466393,-112.0008,Maricopa County,AZ,4013,H1,0.586203916,0.615678704
85009,33.45635,-112.12378,Maricopa County,AZ,4013,H1,0.586203916,0.615678704
85012,33.505251,-112.0703,Maricopa County,AZ,4013,H1,0.586203916,0.615678704
85013,33.50711,-112.08483,Maricopa County,AZ,4013,H1,0.586203916,0.615678704
85014,33.511325,-112.05711,Maricopa County,AZ,4013,H1,0.586203916,0.615678704
85015,33.50689,-112.10262,Maricopa County,AZ,4013,H1,0.586203916,0.615678704
85016,33.503742,-112.03235,Maricopa County,AZ,4013,H1,0.586203916,0.615678704
85017,33.514092,-112.12285,Maricopa County,AZ,4013,H1,0.586203916,0.615678704
85018,33.498076,-111.98603,Maricopa County,AZ,4013,H1,0.586203916,0.615678704
85019,33.511992,-112.1417,Maricopa County,AZ,4013,H1,0.586203916,0.615678704
85020,33.563663,-112.05519,Maricopa County,AZ,4013,H1,0.586203916,0.615678704
85021,33.559437,-112.09281,Maricopa County,AZ,4013,H1,0.586203916,0.615678704
85022,33.630497,-112.0521,Maricopa County,AZ,4013,H1,0.586203916,0.615678704
85023,33.638271,-112.09341,Maricopa County,AZ,4013,H1,0.586203916,0.615678704
85024,33.675564,-112.04717,Maricopa County,AZ,4013,H1,0.586203916,0.615678704
85025,33.422621,-111.723635,Maricopa County,AZ,4013,H1,0.586203916,0.615678704
85026,33.276539,-112.18717,Maricopa County,AZ,4013,H1,0.586203916,0.615678704
85027,33.698731,-112.11429,Maricopa County,AZ,4013,H1,0.586203916,0.615678704
85028,33.585037,-112.00815,Maricopa County,AZ,4013,H1,0.586203916,0.615678704
85029,33.598841,-112.12023,Maricopa County,AZ,4013,H1,0.586203916,0.615678704
85031,33.493496,-112.17108,Maricopa County,AZ,4013,H1,0.586203916,0.615678704
85032,33.62414,-112.00416,Maricopa County,AZ,4013,H1,0.586203916,0.615678704
85033,33.496091,-112.21405,Maricopa County,AZ,4013,H1,0.586203916,0.615678704
85034,33.437772,-112.0281,Maricopa County,AZ,4013,H1,0.586203916,0.615678704
85035,33.472492,-112.1875,Maricopa County,AZ,4013,H1,0.586203916,0.615678704
85037,33.493006,-112.25539,Maricopa County,AZ,4013,H1,0.586203916,0.615678704
85040,33.393323,-112.02857,Maricopa County,AZ,4013,H1,0.586203916,0.615678704
85041,33.386995,-112.10076,Maricopa County,AZ,4013,H1,0.586203916,0.615678704
85042,33.381234,-112.027663,Maricopa County,AZ,4013,H1,0.586203916,0.615678704
85043,33.435405,-112.20009,Maricopa County,AZ,4013,H1,0.586203916,0.615678704
85044,33.333591,-111.99246,Maricopa County,AZ,4013,H1,0.586203916,0.615678704
85045,33.29974,-112.09812,Maricopa County,AZ,4013,H1,0.586203916,0.615678704
85048,33.302098,-112.02477,Maricopa County,AZ,4013,H1,0.586203916,0.615678704
85050,33.683603,-111.99271,Maricopa County,AZ,4013,H1,0.586203916,0.615678704
85051,33.559783,-112.13361,Maricopa County,AZ,4013,H1,0.586203916,0.615678704
85053,33.629911,-112.13122,Maricopa County,AZ,4013,H1,0.586203916,0.615678704
85054,33.689558,-111.96463,Maricopa County,AZ,4013,H1,0.586203916,0.615678704
85083,,,Maricopa County,AZ,4013,H1,0.586203916,0.615678704
85085,33.77776,-112.07945,Maricopa County,AZ,4013,H1,0.586203916,0.615678704
85086,33.831866,-112.06339,Maricopa County,AZ,4013,H1,0.586203916,0.615678704
85087,33.921493,-112.09992,Maricopa County,AZ,4013,H1,0.586203916,0.615678704
85096,,,Maricopa County,AZ,4013,H1,0.586203916,0.615678704
85097,33.276539,-112.18717,Maricopa County,AZ,4013,H1,0.586203916,0.615678704
85098,33.276539,-112.18717,Maricopa County,AZ,4013,H1,0.586203916,0.615678704
85201,33.432177,-111.84701,Maricopa County,AZ,4013,H1,0.586203916,0.615678704
85202,33.381097,-111.8756,Maricopa County,AZ,4013,H1,0.586203916,0.615678704
85203,33.437493,-111.806,Maricopa County,AZ,4013,H1,0.586203916,0.615678704
85204,33.400127,-111.78594,Maricopa County,AZ,4013,H1,0.586203916,0.615678704
85205,33.426932,-111.71686,Maricopa County,AZ,4013,H1,0.586203916,0.615678704
85206,33.400306,-111.72452,Maricopa County,AZ,4013,H1,0.586203916,0.615678704
85207,33.436767,-111.64338,Maricopa County,AZ,4013,H1,0.586203916,0.615678704
85208,33.393967,-111.64302,Maricopa County,AZ,4013,H1,0.586203916,0.615678704
85209,,,Maricopa County,AZ,4013,H1,0.586203916,0.615678704
85210,33.391233,-111.84129,Maricopa County,AZ,4013,H1,0.586203916,0.615678704
85212,33.35035,-111.64535,Maricopa County,AZ,4013,H1,0.586203916,0.615678704
85213,33.434192,-111.76892,Maricopa County,AZ,4013,H1,0.586203916,0.615678704
85215,33.479868,-111.6935,Maricopa County,AZ,4013,H1,0.586203916,0.615678704
85224,33.328951,-111.8735,Maricopa County,AZ,4013,H1,0.586203916,0.615678704
85225,33.316349,-111.83064,Maricopa County,AZ,4013,H1,0.586203916,0.615678704
85226,33.312208,-111.93177,Maricopa County,AZ,4013,H1,0.586203916,0.615678704
85233,33.348593,-111.80833,Maricopa County,AZ,4013,H1,0.586203916,0.615678704
85234,33.36344,-111.75093,Maricopa County,AZ,4013,H1,0.586203916,0.615678704
85236,33.305783,-111.70835,Maricopa County,AZ,4013,H1,0.586203916,0.615678704
85249,33.237229,-111.8004,Maricopa County,AZ,4013,H1,0.586203916,0.615678704
85250,33.521433,-111.90944,Maricopa County,AZ,4013,H1,0.586203916,0.615678704
85251,33.494152,-111.92079,Maricopa County,AZ,4013,H1,0.586203916,0.615678704
85253,33.544596,-111.95645,Maricopa County,AZ,4013,H1,0.586203916,0.615678704
85254,33.617504,-111.95416,Maricopa County,AZ,4013,H1,0.586203916,0.615678704
85255,33.697268,-111.88321,Maricopa County,AZ,4013,H1,0.586203916,0.615678704
85256,33.491302,-111.83509,Maricopa County,AZ,4013,H1,0.586203916,0.615678704
85257,33.467347,-111.91741,Maricopa County,AZ,4013,H1,0.586203916,0.615678704
85258,33.566635,-111.89337,Maricopa County,AZ,4013,H1,0.586203916,0.615678704
85259,33.596995,-111.82628,Maricopa County,AZ,4013,H1,0.586203916,0.615678704
85260,33.606004,-111.88699,Maricopa County,AZ,4013,H1,0.586203916,0.615678704
85262,33.798581,-111.8708,Maricopa County,AZ,4013,H1,0.586203916,0.615678704
85263,33.722594,-111.67915,Maricopa County,AZ,4013,H1,0.586203916,0.615678704
85264,33.617643,-111.67554,Maricopa County,AZ,4013,H1,0.586203916,0.615678704
85266,33.276539,-112.18717,Maricopa County,AZ,4013,H1,0.586203916,0.615678704
85268,33.604811,-111.72852,Maricopa County,AZ,4013,H1,0.586203916,0.615678704
85281,33.426885,-111.92733,Maricopa County,AZ,4013,H1,0.586203916,0.615678704
85282,33.394067,-111.92873,Maricopa County,AZ,4013,H1,0.586203916,0.615678704
85283,33.365951,-111.93155,Maricopa County,AZ,4013,H1,0.586203916,0.615678704
85284,33.338333,-111.92962,Maricopa County,AZ,4013,H1,0.586203916,0.615678704
85286,33.850506,-112.05927,Maricopa County,AZ,4013,H1,0.586203916,0.615678704
85287,33.428511,-111.934865,Maricopa County,AZ,4013,H1,0.586203916,0.615678704
85295,,,Maricopa County,AZ,4013,H1,0.586203916,0.615678704
85296,33.319722,-111.76078,Maricopa County,AZ,4013,H1,0.586203916,0.615678704
85297,33.272322,-111.714171,Maricopa County,AZ,4013,H1,0.586203916,0.615678704
85298,,,Maricopa County,AZ,4013,H1,0.586203916,0.615678704
85301,33.534128,-112.1767,Maricopa County,AZ,4013,H1,0.586203916,0.615678704
85302,33.568143,-112.17699,Maricopa County,AZ,4013,H1,0.586203916,0.615678704
85303,33.528166,-112.22189,Maricopa County,AZ,4013,H1,0.586203916,0.615678704
85304,33.594069,-112.17531,Maricopa County,AZ,4013,H1,0.586203916,0.615678704
85305,33.529373,-112.25225,Maricopa County,AZ,4013,H1,0.586203916,0.615678704
85306,33.624546,-112.1767,Maricopa County,AZ,4013,H1,0.586203916,0.615678704
85307,33.529314,-112.30607,Maricopa County,AZ,4013,H1,0.586203916,0.615678704
85308,33.657722,-112.17825,Maricopa County,AZ,4013,H1,0.586203916,0.615678704
85309,33.533985,-112.37688,Maricopa County,AZ,4013,H1,0.586203916,0.615678704
85310,33.701173,-112.17614,Maricopa County,AZ,4013,H1,0.586203916,0.615678704
85320,33.945183,-113.19837,Maricopa County,AZ,4013,H1,0.586203916,0.615678704
85322,33.274422,-112.78934,Maricopa County,AZ,4013,H1,0.586203916,0.615678704
85323,33.454441,-112.32401,Maricopa County,AZ,4013,H1,0.586203916,0.615678704
85326,33.354418,-112.56941,Maricopa County,AZ,4013,H1,0.586203916,0.615678704
85329,33.431242,-112.29588,Maricopa County,AZ,4013,H1,0.586203916,0.615678704
85331,33.789204,-111.96301,Maricopa County,AZ,4013,H1,0.586203916,0.615678704
85335,33.596823,-112.32364,Maricopa County,AZ,4013,H1,0.586203916,0.615678704
85337,32.971684,-112.7946,Maricopa County,AZ,4013,H1,0.586203916,0.615678704
85338,33.430922,-112.38482,Maricopa County,AZ,4013,H1,0.586203916,0.615678704
85339,33.352795,-112.16752,Maricopa County,AZ,4013,H1,0.586203916,0.615678704
85340,33.50835,-112.40523,Maricopa County,AZ,4013,H1,0.586203916,0.615678704
85342,33.939162,-112.49976,Maricopa County,AZ,4013,H1,0.586203916,0.615678704
85343,33.276539,-112.18717,Maricopa County,AZ,4013,H1,0.586203916,0.615678704
85345,33.573602,-112.23984,Maricopa County,AZ,4013,H1,0.586203916,0.615678704
85351,33.60642,-112.28316,Maricopa County,AZ,4013,H1,0.586203916,0.615678704
85353,33.426423,-112.28299,Maricopa County,AZ,4013,H1,0.586203916,0.615678704
85354,33.452432,-113.01652,Maricopa County,AZ,4013,H1,0.586203916,0.615678704
85355,33.569705,-112.44792,Maricopa County,AZ,4013,H1,0.586203916,0.615678704
85361,33.739904,-112.59778,Maricopa County,AZ,4013,H1,0.586203916,0.615678704
85363,33.588225,-112.30263,Maricopa County,AZ,4013,H1,0.586203916,0.615678704
85373,33.66156,-112.28931,Maricopa County,AZ,4013,H1,0.586203916,0.615678704
85374,33.643508,-112.38502,Maricopa County,AZ,4013,H1,0.586203916,0.615678704
85375,33.683352,-112.36474,Maricopa County,AZ,4013,H1,0.586203916,0.615678704
85377,33.276539,-112.18717,Maricopa County,AZ,4013,H1,0.586203916,0.615678704
85379,33.616888,-112.40158,Maricopa County,AZ,4013,H1,0.586203916,0.615678704
85381,33.60864,-112.22791,Maricopa County,AZ,4013,H1,0.586203916,0.615678704
85382,33.689869,-112.24838,Maricopa County,AZ,4013,H1,0.586203916,0.615678704
85383,33.700837,-112.244827,Maricopa County,AZ,4013,H1,0.586203916,0.615678704
85387,33.276539,-112.18717,Maricopa County,AZ,4013,H1,0.586203916,0.615678704
85388,,,Maricopa County,AZ,4013,H1,0.586203916,0.615678704
85392,,,Maricopa County,AZ,4013,H1,0.586203916,0.615678704
85395,33.580089,-112.246311,Maricopa County,AZ,4013,H1,0.586203916,0.615678704
85396,,,Maricopa County,AZ,4013,H1,0.586203916,0.615678704
79749,32.255909,-101.81824,Martin County,TX,48317,H1,0.613224806,0.616080876
79783,32.369835,-102.03317,Martin County,TX,48317,H1,0.613224806,0.616080876
76841,30.834326,-100.09843,Menard County,TX,48327,H1,0.592231479,0.616360499
76848,30.847791,-99.52617,Menard County,TX,48327,H1,0.592231479,0.616360499
49084,42.178035,-86.38557,Berrien County,MI,26021,H1,0.617359569,0.616607668
49085,42.074435,-86.47935,Berrien County,MI,26021,H1,0.617359569,0.616607668
49101,41.944869,-86.48827,Berrien County,MI,26021,H1,0.617359569,0.616607668
49103,41.944691,-86.34979,Berrien County,MI,26021,H1,0.617359569,0.616607668
49106,41.94263,-86.55586,Berrien County,MI,26021,H1,0.617359569,0.616607668
49107,41.830012,-86.38349,Berrien County,MI,26021,H1,0.617359569,0.616607668
49113,41.801264,-86.50367,Berrien County,MI,26021,H1,0.617359569,0.616607668
49115,41.876483,-86.63715,Berrien County,MI,26021,H1,0.617359569,0.616607668
49116,41.848782,-86.67044,Berrien County,MI,26021,H1,0.617359569,0.616607668
49117,41.784691,-86.75519,Berrien County,MI,26021,H1,0.617359569,0.616607668
49119,41.875968,-86.54919,Berrien County,MI,26021,H1,0.617359569,0.616607668
49125,41.890521,-86.59362,Berrien County,MI,26021,H1,0.617359569,0.616607668
49126,42.036334,-86.37416,Berrien County,MI,26021,H1,0.617359569,0.616607668
49127,42.015092,-86.51351,Berrien County,MI,26021,H1,0.617359569,0.616607668
49128,41.820452,-86.61984,Berrien County,MI,26021,H1,0.617359569,0.616607668
49129,41.827718,-86.69237,Berrien County,MI,26021,H1,0.617359569,0.616607668
72901,35.373791,-94.41371,Sebastian County,AR,5131,H1,0.605147079,0.617969401
72903,35.357041,-94.36914,Sebastian County,AR,5131,H1,0.605147079,0.617969401
72904,35.406185,-94.39103,Sebastian County,AR,5131,H1,0.605147079,0.617969401
72905,35.191046,-94.23816,Sebastian County,AR,5131,H1,0.605147079,0.617969401
72908,35.301623,-94.41283,Sebastian County,AR,5131,H1,0.605147079,0.617969401
72916,35.265119,-94.37789,Sebastian County,AR,5131,H1,0.605147079,0.617969401
72919,35.191046,-94.23816,Sebastian County,AR,5131,H1,0.605147079,0.617969401
72923,35.332908,-94.30853,Sebastian County,AR,5131,H1,0.605147079,0.617969401
72936,35.200061,-94.24376,Sebastian County,AR,5131,H1,0.605147079,0.617969401
72937,35.15875,-94.39462,Sebastian County,AR,5131,H1,0.605147079,0.617969401
72938,35.026991,-94.36684,Sebastian County,AR,5131,H1,0.605147079,0.617969401
72940,35.105477,-94.26995,Sebastian County,AR,5131,H1,0.605147079,0.617969401
72945,35.090489,-94.35097,Sebastian County,AR,5131,H1,0.605147079,0.617969401
93401,35.262548,-120.65196,San Luis Obispo County,CA,6079,H1,0.579149015,0.618152827
93402,35.313222,-120.83468,San Luis Obispo County,CA,6079,H1,0.579149015,0.618152827
93405,35.277189,-120.70305,San Luis Obispo County,CA,6079,H1,0.579149015,0.618152827
93407,35.347065,-120.455345,San Luis Obispo County,CA,6079,H1,0.579149015,0.618152827
93408,35.347065,-120.455345,San Luis Obispo County,CA,6079,H1,0.579149015,0.618152827
93409,35.221085,-120.636399,San Luis Obispo County,CA,6079,H1,0.579149015,0.618152827
93410,35.347065,-120.455345,San Luis Obispo County,CA,6079,H1,0.579149015,0.618152827
93420,35.119678,-120.55116,San Luis Obispo County,CA,6079,H1,0.579149015,0.618152827
93422,35.474913,-120.676,San Luis Obispo County,CA,6079,H1,0.579149015,0.618152827
93424,35.18554,-120.72583,San Luis Obispo County,CA,6079,H1,0.579149015,0.618152827
93428,35.563246,-121.07736,San Luis Obispo County,CA,6079,H1,0.579149015,0.618152827
93430,35.459347,-120.88947,San Luis Obispo County,CA,6079,H1,0.579149015,0.618152827
93432,35.495242,-120.48392,San Luis Obispo County,CA,6079,H1,0.579149015,0.618152827
93433,35.120934,-120.61952,San Luis Obispo County,CA,6079,H1,0.579149015,0.618152827
93435,35.508282,-121.03551,San Luis Obispo County,CA,6079,H1,0.579149015,0.618152827
93442,35.373047,-120.83844,San Luis Obispo County,CA,6079,H1,0.579149015,0.618152827
93444,35.032408,-120.49446,San Luis Obispo County,CA,6079,H1,0.579149015,0.618152827
93445,35.097599,-120.61327,San Luis Obispo County,CA,6079,H1,0.579149015,0.618152827
93446,35.640589,-120.70418,San Luis Obispo County,CA,6079,H1,0.579149015,0.618152827
93449,35.150886,-120.65401,San Luis Obispo County,CA,6079,H1,0.579149015,0.618152827
93452,35.664386,-121.21965,San Luis Obispo County,CA,6079,H1,0.579149015,0.618152827
93453,35.323098,-120.08301,San Luis Obispo County,CA,6079,H1,0.579149015,0.618152827
93465,35.54464,-120.72428,San Luis Obispo County,CA,6079,H1,0.579149015,0.618152827
40339,37.942941,-84.64418,Jessamine County,KY,21113,H1,0.638222076,0.618788564
77412,29.575183,-96.46831,Colorado County,TX,48089,H1,0.611257249,0.61898394
77434,29.575458,-96.32079,Colorado County,TX,48089,H1,0.611257249,0.61898394
77442,29.424483,-96.45923,Colorado County,TX,48089,H1,0.611257249,0.61898394
77460,29.60466,-96.524899,Colorado County,TX,48089,H1,0.611257249,0.61898394
77470,29.520292,-96.57348,Colorado County,TX,48089,H1,0.611257249,0.61898394
77475,29.488245,-96.65185,Colorado County,TX,48089,H1,0.611257249,0.61898394
78934,29.712052,-96.56134,Colorado County,TX,48089,H1,0.611257249,0.61898394
78935,29.698797,-96.45594,Colorado County,TX,48089,H1,0.611257249,0.61898394
78943,29.699797,-96.59314,Colorado County,TX,48089,H1,0.611257249,0.61898394
78951,29.60466,-96.524899,Colorado County,TX,48089,H1,0.611257249,0.61898394
6401,41.34269,-73.07446,New Haven County,CT,9009,H4,0.642296071,0.619572051
6403,41.432936,-73.06453,New Haven County,CT,9009,H4,0.642296071,0.619572051
6405,41.277763,-72.80542,New Haven County,CT,9009,H4,0.642296071,0.619572051
6408,41.365709,-72.927507,New Haven County,CT,9009,H4,0.642296071,0.619572051
6410,41.507049,-72.90489,New Haven County,CT,9009,H4,0.642296071,0.619572051
6411,41.550097,-72.922235,New Haven County,CT,9009,H4,0.642296071,0.619572051
6418,41.323005,-73.08433,New Haven County,CT,9009,H4,0.642296071,0.619572051
6437,41.31353,-72.69791,New Haven County,CT,9009,H4,0.642296071,0.619572051
6443,41.298648,-72.60938,New Haven County,CT,9009,H4,0.642296071,0.619572051
6450,41.532048,-72.78145,New Haven County,CT,9009,H4,0.642296071,0.619572051
6460,41.21953,-73.0554,New Haven County,CT,9009,H4,0.642296071,0.619572051
6461,,,New Haven County,CT,9009,H4,0.642296071,0.619572051
6471,41.332197,-72.77214,New Haven County,CT,9009,H4,0.642296071,0.619572051
6472,41.399873,-72.77975,New Haven County,CT,9009,H4,0.642296071,0.619572051
6473,41.378447,-72.85897,New Haven County,CT,9009,H4,0.642296071,0.619572051
6477,41.279547,-73.02541,New Haven County,CT,9009,H4,0.642296071,0.619572051
6478,41.428163,-73.12729,New Haven County,CT,9009,H4,0.642296071,0.619572051
6483,41.386584,-73.0792,New Haven County,CT,9009,H4,0.642296071,0.619572051
6487,41.365709,-72.927507,New Haven County,CT,9009,H4,0.642296071,0.619572051
6488,41.475263,-73.22184,New Haven County,CT,9009,H4,0.642296071,0.619572051
6492,41.457711,-72.81704,New Haven County,CT,9009,H4,0.642296071,0.619572051
6493,41.365709,-72.927507,New Haven County,CT,9009,H4,0.642296071,0.619572051
6494,41.365709,-72.927507,New Haven County,CT,9009,H4,0.642296071,0.619572051
6495,,,New Haven County,CT,9009,H4,0.642296071,0.619572051
6504,41.304697,-72.93561,New Haven County,CT,9009,H4,0.642296071,0.619572051
6510,41.306197,-72.92479,New Haven County,CT,9009,H4,0.642296071,0.619572051
6511,41.317197,-72.92798,New Haven County,CT,9009,H4,0.642296071,0.619572051
6512,41.276497,-72.87412,New Haven County,CT,9009,H4,0.642296071,0.619572051
6513,41.315797,-72.8803,New Haven County,CT,9009,H4,0.642296071,0.619572051
6514,41.357947,-72.93765,New Haven County,CT,9009,H4,0.642296071,0.619572051
6515,41.327997,-72.96902,New Haven County,CT,9009,H4,0.642296071,0.619572051
6516,41.272147,-72.96496,New Haven County,CT,9009,H4,0.642296071,0.619572051
6517,41.348297,-72.90712,New Haven County,CT,9009,H4,0.642296071,0.619572051
6518,41.413114,-72.90409,New Haven County,CT,9009,H4,0.642296071,0.619572051
6519,41.295197,-72.93673,New Haven County,CT,9009,H4,0.642296071,0.619572051
6524,41.417896,-73.00356,New Haven County,CT,9009,H4,0.642296071,0.619572051
6525,41.352964,-73.01212,New Haven County,CT,9009,H4,0.642296071,0.619572051
6537,41.365709,-72.927507,New Haven County,CT,9009,H4,0.642296071,0.619572051
6538,41.365709,-72.927507,New Haven County,CT,9009,H4,0.642296071,0.619572051
6540,41.299647,-72.918846,New Haven County,CT,9009,H4,0.642296071,0.619572051
6701,41.365709,-72.927507,New Haven County,CT,9009,H4,0.642296071,0.619572051
6702,41.555846,-73.0431,New Haven County,CT,9009,H4,0.642296071,0.619572051
6703,41.365709,-72.927507,New Haven County,CT,9009,H4,0.642296071,0.619572051
6704,41.57693,-73.03488,New Haven County,CT,9009,H4,0.642296071,0.619572051
6705,41.54903,-72.99861,New Haven County,CT,9009,H4,0.642296071,0.619572051
6706,41.537896,-73.02827,New Haven County,CT,9009,H4,0.642296071,0.619572051
6708,41.551601,-73.06262,New Haven County,CT,9009,H4,0.642296071,0.619572051
6710,41.569496,-73.04484,New Haven County,CT,9009,H4,0.642296071,0.619572051
6712,41.501856,-72.97799,New Haven County,CT,9009,H4,0.642296071,0.619572051
6716,41.594785,-72.97889,New Haven County,CT,9009,H4,0.642296071,0.619572051
6749,41.365709,-72.927507,New Haven County,CT,9009,H4,0.642296071,0.619572051
6762,41.532992,-73.11555,New Haven County,CT,9009,H4,0.642296071,0.619572051
6770,41.493763,-73.05173,New Haven County,CT,9009,H4,0.642296071,0.619572051
31532,31.718382,-82.73595,Jeff Davis County,GA,13161,H1,0.584160504,0.62081535
73832,36.122573,-99.712,Ellis County,OK,40045,H1,0.630796468,0.621566078
73840,36.403804,-99.64674,Ellis County,OK,40045,H1,0.630796468,0.621566078
73843,36.41954,-99.84131,Ellis County,OK,40045,H1,0.630796468,0.621566078
73858,36.226355,-99.89028,Ellis County,OK,40045,H1,0.630796468,0.621566078
39305,32.439945,-88.70918,Lauderdale County,MS,28075,H1,0.589272756,0.622137841
39309,32.337389,-88.726474,Lauderdale County,MS,28075,H1,0.589272756,0.622137841
39320,32.535472,-88.72639,Lauderdale County,MS,28075,H1,0.589272756,0.622137841
39326,32.578591,-88.66152,Lauderdale County,MS,28075,H1,0.589272756,0.622137841
39335,32.517145,-88.51801,Lauderdale County,MS,28075,H1,0.589272756,0.622137841
39342,32.336743,-88.616297,Lauderdale County,MS,28075,H1,0.589272756,0.622137841
39364,32.420314,-88.52234,Lauderdale County,MS,28075,H1,0.589272756,0.622137841
95527,40.877334,-123.45661,Trinity County,CA,6105,H1,0.618268644,0.623864929
95552,40.390478,-123.41309,Trinity County,CA,6105,H1,0.618268644,0.623864929
95595,40.202464,-123.46646,Trinity County,CA,6105,H1,0.618268644,0.623864929
96010,40.723792,-123.34016,Trinity County,CA,6105,H1,0.618268644,0.623864929
96024,40.606673,-122.92335,Trinity County,CA,6105,H1,0.618268644,0.623864929
96041,40.524496,-123.18307,Trinity County,CA,6105,H1,0.618268644,0.623864929
96046,40.639108,-123.47525,Trinity County,CA,6105,H1,0.618268644,0.623864929
96048,40.850776,-122.92043,Trinity County,CA,6105,H1,0.618268644,0.623864929
96052,40.743423,-122.81414,Trinity County,CA,6105,H1,0.618268644,0.623864929
96091,41.004651,-122.71541,Trinity County,CA,6105,H1,0.618268644,0.623864929
96093,40.734483,-122.93982,Trinity County,CA,6105,H1,0.618268644,0.623864929
55324,45.057766,-94.40368,Meeker County,MN,27093,H1,0.504017629,0.52048081
55325,45.091115,-94.31758,Meeker County,MN,27093,H1,0.504017629,0.52048081
56228,44.933861,-94.67563,Meeker County,MN,27093,H1,0.504017629,0.52048081
56243,45.168724,-94.68641,Meeker County,MN,27093,H1,0.504017629,0.52048081
47021,38.966859,-85.1453,Ripley County,IN,18137,H1,0.504034474,0.493738618
47023,39.07308,-85.38747,Ripley County,IN,18137,H1,0.504034474,0.493738618
47033,39.281429,-85.1739,Ripley County,IN,18137,H1,0.504034474,0.493738618
47034,39.205405,-85.32865,Ripley County,IN,18137,H1,0.504034474,0.493738618
47037,39.1548,-85.30949,Ripley County,IN,18137,H1,0.504034474,0.493738618
47039,39.111625,-85.255114,Ripley County,IN,18137,H1,0.504034474,0.493738618
47042,39.035173,-85.26017,Ripley County,IN,18137,H1,0.504034474,0.493738618
55001,44.903133,-92.81904,Washington County,MN,27163,H1,0.504191444,0.547552593
55003,45.017767,-92.78039,Washington County,MN,27163,H1,0.504191444,0.547552593
55016,44.830966,-92.93739,Washington County,MN,27163,H1,0.504191444,0.547552593
55042,44.999023,-92.90939,Washington County,MN,27163,H1,0.504191444,0.547552593
55043,44.9316,-92.77001,Washington County,MN,27163,H1,0.504191444,0.547552593
55047,45.195606,-92.81649,Washington County,MN,27163,H1,0.504191444,0.547552593
55055,44.871166,-93.00187,Washington County,MN,27163,H1,0.504191444,0.547552593
55071,44.835366,-92.99254,Washington County,MN,27163,H1,0.504191444,0.547552593
55082,45.054551,-92.82581,Washington County,MN,27163,H1,0.504191444,0.547552593
55090,45.054666,-92.95703,Washington County,MN,27163,H1,0.504191444,0.547552593
55115,45.060048,-92.95762,Washington County,MN,27163,H1,0.504191444,0.547552593
55129,44.896938,-92.90241,Washington County,MN,27163,H1,0.504191444,0.547552593
55187,45.005902,-93.105869,Washington County,MN,27163,H1,0.504191444,0.547552593
55188,45.005902,-93.105869,Washington County,MN,27163,H1,0.504191444,0.547552593
82001,41.141281,-104.80208,Laramie County,WY,56021,H1,0.504463718,0.529987429
82005,41.139057,-104.862947,Laramie County,WY,56021,H1,0.504463718,0.529987429
82007,41.101731,-104.80582,Laramie County,WY,56021,H1,0.504463718,0.529987429
82009,41.275932,-104.88279,Laramie County,WY,56021,H1,0.504463718,0.529987429
82050,41.425769,-104.18805,Laramie County,WY,56021,H1,0.504463718,0.529987429
82053,41.209041,-104.35907,Laramie County,WY,56021,H1,0.504463718,0.529987429
82054,41.064212,-104.34107,Laramie County,WY,56021,H1,0.504463718,0.529987429
82059,41.051097,-105.19216,Laramie County,WY,56021,H1,0.504463718,0.529987429
82060,41.210012,-104.48095,Laramie County,WY,56021,H1,0.504463718,0.529987429
82061,41.422733,-105.19881,Laramie County,WY,56021,H1,0.504463718,0.529987429
82081,41.552531,-104.39118,Laramie County,WY,56021,H1,0.504463718,0.529987429
82082,41.181106,-104.00078,Laramie County,WY,56021,H1,0.504463718,0.529987429
80420,39.293921,-106.06889,Park County,CO,8093,H1,0.504671471,0.506666712
80432,39.24344,-105.79431,Park County,CO,8093,H1,0.504671471,0.506666712
80440,39.22106,-106.0065,Park County,CO,8093,H1,0.504671471,0.506666712
80448,39.459109,-105.72873,Park County,CO,8093,H1,0.504671471,0.506666712
80456,39.310793,-105.74027,Park County,CO,8093,H1,0.504671471,0.506666712
80475,39.439493,-105.602959,Park County,CO,8093,H1,0.504671471,0.506666712
80820,38.783844,-105.63616,Park County,CO,8093,H1,0.504671471,0.506666712
54814,46.856701,-90.85401,Bayfield County,WI,55007,H1,0.506350849,0.536698402
54816,46.682796,-91.143254,Bayfield County,WI,55007,H1,0.506350849,0.536698402
54821,46.213138,-91.13997,Bayfield County,WI,55007,H1,0.506350849,0.536698402
54827,46.802909,-91.10944,Bayfield County,WI,55007,H1,0.506350849,0.536698402
54832,46.326236,-91.29643,Bayfield County,WI,55007,H1,0.506350849,0.536698402
54839,46.360155,-91.14425,Bayfield County,WI,55007,H1,0.506350849,0.536698402
54844,46.765166,-91.21312,Bayfield County,WI,55007,H1,0.506350849,0.536698402
54847,46.553351,-91.37996,Bayfield County,WI,55007,H1,0.506350849,0.536698402
54856,46.433167,-91.10883,Bayfield County,WI,55007,H1,0.506350849,0.536698402
54865,46.757192,-91.39611,Bayfield County,WI,55007,H1,0.506350849,0.536698402
54891,46.69297,-90.93744,Bayfield County,WI,55007,H1,0.506350849,0.536698402
83611,44.476882,-115.9729,Valley County,ID,16085,H1,0.506454665,0.504305412
83615,44.699961,-116.05992,Valley County,ID,16085,H1,0.506454665,0.504305412
83635,44.68367,-115.453583,Valley County,ID,16085,H1,0.506454665,0.504305412
83677,45.01781,-115.55397,Valley County,ID,16085,H1,0.506454665,0.504305412
52619,40.542869,-91.57544,Lee County,IA,19111,H1,0.506982045,0.548777792
52624,40.741062,-91.33664,Lee County,IA,19111,H1,0.506982045,0.548777792
52627,40.637694,-91.33866,Lee County,IA,19111,H1,0.506982045,0.548777792
52631,40.784287,-91.60716,Lee County,IA,19111,H1,0.506982045,0.548777792
52632,40.409641,-91.40001,Lee County,IA,19111,H1,0.506982045,0.548777792
52639,40.547399,-91.43864,Lee County,IA,19111,H1,0.506982045,0.548777792
52648,40.594704,-91.415648,Lee County,IA,19111,H1,0.506982045,0.548777792
52657,40.758742,-91.478305,Lee County,IA,19111,H1,0.506982045,0.548777792
56003,44.184909,-94.04244,Nicollet County,MN,27103,H1,0.507225667,0.542633278
56021,44.277333,-94.31424,Nicollet County,MN,27103,H1,0.507225667,0.542633278
56074,44.331757,-94.19561,Nicollet County,MN,27103,H1,0.507225667,0.542633278
37066,36.388997,-86.4548,Sumner County,TN,47165,H1,0.507665318,0.543419122
37075,36.311047,-86.61173,Sumner County,TN,47165,H1,0.507665318,0.543419122
37119,36.631981,-86.539028,Sumner County,TN,47165,H1,0.507665318,0.543419122
54404,44.466554,-90.02136,Wood County,WI,55141,H1,0.508297345,0.536968024
54410,44.536298,-90.04317,Wood County,WI,55141,H1,0.508297345,0.536968024
54413,44.283542,-90.12791,Wood County,WI,55141,H1,0.508297345,0.536968024
54415,44.619128,-89.918563,Wood County,WI,55141,H1,0.508297345,0.536968024
54441,44.645158,-90.10523,Wood County,WI,55141,H1,0.508297345,0.536968024
54469,44.348816,-89.86368,Wood County,WI,55141,H1,0.508297345,0.536968024
54472,44.466554,-90.02136,Wood County,WI,55141,H1,0.508297345,0.536968024
54489,44.456798,-89.99623,Wood County,WI,55141,H1,0.508297345,0.536968024
54495,44.376507,-89.90771,Wood County,WI,55141,H1,0.508297345,0.536968024
60001,42.324761,-88.452481,McHenry County,IL,17111,H1,0.50891158,0.524150264
60012,42.265643,-88.31664,McHenry County,IL,17111,H1,0.50891158,0.524150264
60014,42.226623,-88.33066,McHenry County,IL,17111,H1,0.50891158,0.524150264
60034,42.468318,-88.43125,McHenry County,IL,17111,H1,0.50891158,0.524150264
60071,42.464639,-88.3028,McHenry County,IL,17111,H1,0.50891158,0.524150264
60072,42.405464,-88.30274,McHenry County,IL,17111,H1,0.50891158,0.524150264
60097,42.384504,-88.3495,McHenry County,IL,17111,H1,0.50891158,0.524150264
60098,42.316121,-88.43884,McHenry County,IL,17111,H1,0.50891158,0.524150264
60156,42.185733,-88.348484,McHenry County,IL,17111,H1,0.50891158,0.524150264
60180,42.229437,-88.52606,McHenry County,IL,17111,H1,0.50891158,0.524150264
50041,42.632923,-93.2459,Franklin County,IA,19069,H1,0.509078914,0.547111987
50227,42.594986,-93.42826,Franklin County,IA,19069,H1,0.509078914,0.547111987
50427,42.834852,-93.222587,Franklin County,IA,19069,H1,0.509078914,0.547111987
50431,42.735305,-93.37056,Franklin County,IA,19069,H1,0.509078914,0.547111987
50441,42.743106,-93.21518,Franklin County,IA,19069,H1,0.509078914,0.547111987
50452,42.77929,-93.36842,Franklin County,IA,19069,H1,0.509078914,0.547111987
50633,42.671214,-93.13215,Franklin County,IA,19069,H1,0.509078914,0.547111987
44276,40.951253,-81.82651,Wayne County,OH,39169,H1,0.509286521,0.540446078
44606,40.739199,-81.80457,Wayne County,OH,39169,H1,0.509286521,0.540446078
44636,40.738387,-81.742811,Wayne County,OH,39169,H1,0.509286521,0.540446078
44659,40.694887,-81.70227,Wayne County,OH,39169,H1,0.509286521,0.540446078
44667,40.835059,-81.77006,Wayne County,OH,39169,H1,0.509286521,0.540446078
44677,40.865194,-81.85967,Wayne County,OH,39169,H1,0.509286521,0.540446078
44691,40.800086,-81.95726,Wayne County,OH,39169,H1,0.509286521,0.540446078
66842,38.018802,-96.66349,Butler County,KS,20015,H1,0.509459146,0.537153642
67002,37.693585,-97.11321,Butler County,KS,20015,H1,0.509459146,0.537153642
67010,37.68066,-96.98153,Butler County,KS,20015,H1,0.509459146,0.537153642
67012,37.660135,-96.53372,Butler County,KS,20015,H1,0.509459146,0.537153642
67041,38.054115,-97.12711,Butler County,KS,20015,H1,0.509459146,0.537153642
67042,37.830417,-96.84294,Butler County,KS,20015,H1,0.509459146,0.537153642
67074,37.686034,-96.7069,Butler County,KS,20015,H1,0.509459146,0.537153642
67123,37.946174,-97.01423,Butler County,KS,20015,H1,0.509459146,0.537153642
67132,37.813869,-96.57856,Butler County,KS,20015,H1,0.509459146,0.537153642
67144,37.804776,-97.01477,Butler County,KS,20015,H1,0.509459146,0.537153642
16217,41.344067,-79.20159,Forest County,PA,42053,H1,0.509718331,0.494322171
16239,41.496544,-79.13944,Forest County,PA,42053,H1,0.509718331,0.494322171
16322,41.626321,-79.3633,Forest County,PA,42053,H1,0.509718331,0.494322171
16370,41.569732,-79.40911,Forest County,PA,42053,H1,0.509718331,0.494322171
18405,41.598906,-75.10381,Wayne County,PA,42127,H1,0.509875215,0.530819375
18415,41.743598,-75.12383,Wayne County,PA,42127,H1,0.509875215,0.530819375
18417,41.800226,-75.20349,Wayne County,PA,42127,H1,0.509875215,0.530819375
18427,41.422497,-75.335384,Wayne County,PA,42127,H1,0.509875215,0.530819375
18431,41.60032,-75.25102,Wayne County,PA,42127,H1,0.509875215,0.530819375
18437,41.866271,-75.33611,Wayne County,PA,42127,H1,0.509875215,0.530819375
18438,41.429411,-75.24702,Wayne County,PA,42127,H1,0.509875215,0.530819375
18439,41.825884,-75.34132,Wayne County,PA,42127,H1,0.509875215,0.530819375
18443,41.656499,-75.11552,Wayne County,PA,42127,H1,0.509875215,0.530819375
18449,41.615989,-75.274708,Wayne County,PA,42127,H1,0.509875215,0.530819375
18453,41.75098,-75.37109,Wayne County,PA,42127,H1,0.509875215,0.530819375
18454,41.615989,-75.274708,Wayne County,PA,42127,H1,0.509875215,0.530819375
18455,41.880371,-75.36086,Wayne County,PA,42127,H1,0.509875215,0.530819375
18456,41.606185,-75.33971,Wayne County,PA,42127,H1,0.509875215,0.530819375
18459,41.515012,-75.40884,Wayne County,PA,42127,H1,0.509875215,0.530819375
18460,41.255644,-75.34474,Wayne County,PA,42127,H1,0.509875215,0.530819375
18461,41.938498,-75.34499,Wayne County,PA,42127,H1,0.509875215,0.530819375
18462,41.8914,-75.43221,Wayne County,PA,42127,H1,0.509875215,0.530819375
18463,41.376953,-75.31601,Wayne County,PA,42127,H1,0.509875215,0.530819375
18469,41.694366,-75.13718,Wayne County,PA,42127,H1,0.509875215,0.530819375
18473,41.525207,-75.20779,Wayne County,PA,42127,H1,0.509875215,0.530819375
17501,40.156472,-76.204,Lancaster County,PA,42071,H1,0.510230139,0.549185811
17502,40.095995,-76.66707,Lancaster County,PA,42071,H1,0.510230139,0.549185811
17503,40.0185,-76.297582,Lancaster County,PA,42071,H1,0.510230139,0.549185811
17504,40.024047,-76.328081,Lancaster County,PA,42071,H1,0.510230139,0.549185811
17505,40.055467,-76.19149,Lancaster County,PA,42071,H1,0.510230139,0.549185811
17506,40.117326,-76.052379,Lancaster County,PA,42071,H1,0.510230139,0.549185811
17507,40.196641,-76.016047,Lancaster County,PA,42071,H1,0.510230139,0.549185811
17508,40.125278,-76.21665,Lancaster County,PA,42071,H1,0.510230139,0.549185811
17509,39.919072,-76.02508,Lancaster County,PA,42071,H1,0.510230139,0.549185811
17512,40.037682,-76.49011,Lancaster County,PA,42071,H1,0.510230139,0.549185811
17516,39.938255,-76.36066,Lancaster County,PA,42071,H1,0.510230139,0.549185811
17517,40.234392,-76.12655,Lancaster County,PA,42071,H1,0.510230139,0.549185811
17518,39.811308,-76.25348,Lancaster County,PA,42071,H1,0.510230139,0.549185811
17519,40.141301,-76.0227,Lancaster County,PA,42071,H1,0.510230139,0.549185811
17520,40.098696,-76.35153,Lancaster County,PA,42071,H1,0.510230139,0.549185811
17521,40.204393,-76.34643,Lancaster County,PA,42071,H1,0.510230139,0.549185811
17522,40.174994,-76.17619,Lancaster County,PA,42071,H1,0.510230139,0.549185811
17528,40.043523,-76.238766,Lancaster County,PA,42071,H1,0.510230139,0.549185811
17529,40.0348,-76.11175,Lancaster County,PA,42071,H1,0.510230139,0.549185811
17532,39.859296,-76.28548,Lancaster County,PA,42071,H1,0.510230139,0.549185811
17533,40.233892,-76.260725,Lancaster County,PA,42071,H1,0.510230139,0.549185811
17534,40.036659,-76.106902,Lancaster County,PA,42071,H1,0.510230139,0.549185811
17535,40.000723,-76.04649,Lancaster County,PA,42071,H1,0.510230139,0.549185811
17536,39.840243,-76.07373,Lancaster County,PA,42071,H1,0.510230139,0.549185811
17537,39.988548,-76.238729,Lancaster County,PA,42071,H1,0.510230139,0.549185811
17538,40.091196,-76.41582,Lancaster County,PA,42071,H1,0.510230139,0.549185811
17540,40.096346,-76.19007,Lancaster County,PA,42071,H1,0.510230139,0.549185811
17543,40.164049,-76.29946,Lancaster County,PA,42071,H1,0.510230139,0.549185811
17547,40.064862,-76.57145,Lancaster County,PA,42071,H1,0.510230139,0.549185811
17550,40.072108,-76.57779,Lancaster County,PA,42071,H1,0.510230139,0.549185811
17551,39.994798,-76.36018,Lancaster County,PA,42071,H1,0.510230139,0.549185811
17552,40.109445,-76.50919,Lancaster County,PA,42071,H1,0.510230139,0.549185811
17554,40.040697,-76.42806,Lancaster County,PA,42071,H1,0.510230139,0.549185811
17557,40.102296,-76.08031,Lancaster County,PA,42071,H1,0.510230139,0.549185811
17560,39.915209,-76.21546,Lancaster County,PA,42071,H1,0.510230139,0.549185811
17562,39.981916,-76.09224,Lancaster County,PA,42071,H1,0.510230139,0.549185811
17563,39.767658,-76.1749,Lancaster County,PA,42071,H1,0.510230139,0.549185811
17564,40.0185,-76.297582,Lancaster County,PA,42071,H1,0.510230139,0.549185811
17565,39.902788,-76.32496,Lancaster County,PA,42071,H1,0.510230139,0.549185811
17566,39.872437,-76.15056,Lancaster County,PA,42071,H1,0.510230139,0.549185811
17567,40.209941,-76.116445,Lancaster County,PA,42071,H1,0.510230139,0.549185811
17568,39.9469,-76.232229,Lancaster County,PA,42071,H1,0.510230139,0.549185811
17570,40.129494,-76.56991,Lancaster County,PA,42071,H1,0.510230139,0.549185811
17572,40.003405,-76.15367,Lancaster County,PA,42071,H1,0.510230139,0.549185811
17575,40.064746,-76.434285,Lancaster County,PA,42071,H1,0.510230139,0.549185811
17576,40.038648,-76.1964,Lancaster County,PA,42071,H1,0.510230139,0.549185811
17578,40.226093,-76.16682,Lancaster County,PA,42071,H1,0.510230139,0.549185811
17579,39.9656,-76.17781,Lancaster County,PA,42071,H1,0.510230139,0.549185811
17580,40.116846,-76.213075,Lancaster County,PA,42071,H1,0.510230139,0.549185811
17581,40.157565,-76.05041,Lancaster County,PA,42071,H1,0.510230139,0.549185811
17582,39.993398,-76.45568,Lancaster County,PA,42071,H1,0.510230139,0.549185811
17584,39.963866,-76.26963,Lancaster County,PA,42071,H1,0.510230139,0.549185811
17585,40.048398,-76.211427,Lancaster County,PA,42071,H1,0.510230139,0.549185811
17601,40.072246,-76.3155,Lancaster County,PA,42071,H1,0.510230139,0.549185811
17602,40.032664,-76.27575,Lancaster County,PA,42071,H1,0.510230139,0.549185811
17603,40.03263,-76.33328,Lancaster County,PA,42071,H1,0.510230139,0.549185811
17604,40.065096,-76.335631,Lancaster County,PA,42071,H1,0.510230139,0.549185811
19501,40.241588,-76.05765,Lancaster County,PA,42071,H1,0.510230139,0.549185811
78622,29.760052,-97.77727,Caldwell County,TX,48055,H1,0.51065078,0.515760661
78644,29.872165,-97.68093,Caldwell County,TX,48055,H1,0.51065078,0.515760661
78661,29.72057,-97.73519,Caldwell County,TX,48055,H1,0.51065078,0.515760661
97711,44.738812,-120.75257,Jefferson County,OR,41031,H1,0.511478746,0.501272825
97730,44.46723,-121.64724,Jefferson County,OR,41031,H1,0.511478746,0.501272825
97734,44.498302,-121.21084,Jefferson County,OR,41031,H1,0.511478746,0.501272825
97741,44.64079,-121.12506,Jefferson County,OR,41031,H1,0.511478746,0.501272825
97761,44.814466,-121.32302,Jefferson County,OR,41031,H1,0.511478746,0.501272825
68314,41.009984,-97.03437,Seward County,NE,31159,H1,0.511801497,0.519651363
68330,40.716216,-97.3522,Seward County,NE,31159,H1,0.511801497,0.519651363
68364,40.832663,-97.22019,Seward County,NE,31159,H1,0.511801497,0.519651363
68405,40.772835,-97.05841,Seward County,NE,31159,H1,0.511801497,0.519651363
68434,40.909197,-97.11206,Seward County,NE,31159,H1,0.511801497,0.519651363
68439,40.996127,-97.2052,Seward County,NE,31159,H1,0.511801497,0.519651363
68456,40.898329,-97.32084,Seward County,NE,31159,H1,0.511801497,0.519651363
56030,44.325833,-94.605226,Brown County,MN,27015,H1,0.512200667,0.536390485
56084,44.302893,-94.738827,Brown County,MN,27015,H1,0.512200667,0.536390485
56085,44.29717,-94.73426,Brown County,MN,27015,H1,0.512200667,0.536390485
63655,37.416023,-90.18886,Madison County,MO,29123,H1,0.512333374,0.529409034
73734,35.978156,-97.8868,Kingfisher County,OK,40073,H1,0.512548114,0.534282414
73742,36.105884,-97.88304,Kingfisher County,OK,40073,H1,0.512548114,0.534282414
73750,35.856216,-97.93743,Kingfisher County,OK,40073,H1,0.512548114,0.534282414
73756,36.007004,-98.11234,Kingfisher County,OK,40073,H1,0.512548114,0.534282414
73764,35.867757,-98.17995,Kingfisher County,OK,40073,H1,0.512548114,0.534282414
68057,41.653831,-96.708,Dodge County,NE,31053,H1,0.512896684,0.501805744
68063,41.733433,-96.50454,Dodge County,NE,31053,H1,0.512896684,0.501805744
68072,41.61023,-96.503281,Dodge County,NE,31053,H1,0.512896684,0.501805744
68621,41.482181,-96.63929,Dodge County,NE,31053,H1,0.512896684,0.501805744
68649,41.484782,-96.77567,Dodge County,NE,31053,H1,0.512896684,0.501805744
68664,41.704483,-96.78794,Dodge County,NE,31053,H1,0.512896684,0.501805744
24072,37.040036,-80.2167,Floyd County,VA,51063,H1,0.512955367,0.545296051
24105,36.901524,-80.5936,Floyd County,VA,51063,H1,0.512955367,0.545296051
61037,41.788761,-89.76182,Whiteside County,IL,17195,H1,0.513095762,0.530727936
61230,41.766003,-90.22322,Whiteside County,IL,17195,H1,0.513095762,0.530727936
61251,41.738551,-90.06922,Whiteside County,IL,17195,H1,0.513095762,0.530727936
61261,41.719782,-89.92116,Whiteside County,IL,17195,H1,0.513095762,0.530727936
61270,41.819003,-89.96623,Whiteside County,IL,17195,H1,0.513095762,0.530727936
46711,40.660174,-84.94244,Adams County,IN,18001,H1,0.513256314,0.544374028
46769,40.74532,-84.937926,Adams County,IN,18001,H1,0.513256314,0.544374028
46772,40.736015,-84.92161,Adams County,IN,18001,H1,0.513256314,0.544374028
46780,40.74532,-84.937926,Adams County,IN,18001,H1,0.513256314,0.544374028
46782,40.83204,-85.005402,Adams County,IN,18001,H1,0.513256314,0.544374028
30140,33.88232,-85.234946,Haralson County,GA,13143,H1,0.811408534,0.501113023
30176,33.748838,-85.29304,Haralson County,GA,13143,H1,0.811408534,0.501113023
25047,37.950033,-81.78924,Logan County,WV,54045,H1,0.812686443,0.529281434
25076,37.861621,-81.90361,Logan County,WV,54045,H1,0.812686443,0.529281434
25121,37.929438,-81.90109,Logan County,WV,54045,H1,0.812686443,0.529281434
25183,37.909119,-81.83666,Logan County,WV,54045,H1,0.812686443,0.529281434
25505,38.009633,-82.04481,Logan County,WV,54045,H1,0.812686443,0.529281434
25547,37.925145,-81.95826,Logan County,WV,54045,H1,0.812686443,0.529281434
25601,37.833826,-82.00011,Logan County,WV,54045,H1,0.812686443,0.529281434
25606,37.75979,-81.82027,Logan County,WV,54045,H1,0.812686443,0.529281434
25607,37.788146,-81.80248,Logan County,WV,54045,H1,0.812686443,0.529281434
25612,37.76662,-81.98755,Logan County,WV,54045,H1,0.812686443,0.529281434
25614,37.833204,-81.902401,Logan County,WV,54045,H1,0.812686443,0.529281434
25617,37.733955,-81.81897,Logan County,WV,54045,H1,0.812686443,0.529281434
25624,37.904732,-81.9827,Logan County,WV,54045,H1,0.812686443,0.529281434
25625,37.827404,-82.06382,Logan County,WV,54045,H1,0.812686443,0.529281434
25630,37.80126,-81.70802,Logan County,WV,54045,H1,0.812686443,0.529281434
25632,37.779196,-81.91651,Logan County,WV,54045,H1,0.812686443,0.529281434
25634,37.72738,-81.84577,Logan County,WV,54045,H1,0.812686443,0.529281434
25635,37.729265,-81.87853,Logan County,WV,54045,H1,0.812686443,0.529281434
25638,37.734818,-82.01452,Logan County,WV,54045,H1,0.812686443,0.529281434
25644,37.688162,-81.98826,Logan County,WV,54045,H1,0.812686443,0.529281434
25649,37.852728,-82.06678,Logan County,WV,54045,H1,0.812686443,0.529281434
25652,37.800168,-82.03943,Logan County,WV,54045,H1,0.812686443,0.529281434
25653,37.828926,-81.99936,Logan County,WV,54045,H1,0.812686443,0.529281434
25654,37.801671,-81.87113,Logan County,WV,54045,H1,0.812686443,0.529281434
79220,33.749303,-100.76393,Dickens County,TX,48125,H1,0.812950698,0.540946551
79229,33.654512,-100.75517,Dickens County,TX,48125,H1,0.812950698,0.540946551
79243,33.787306,-100.98464,Dickens County,TX,48125,H1,0.812950698,0.540946551
79370,33.478848,-100.89669,Dickens County,TX,48125,H1,0.812950698,0.540946551
7011,40.879699,-74.14263,Passaic County,NJ,34031,H1,0.813360318,0.52616963
7012,40.847922,-74.1579,Passaic County,NJ,34031,H1,0.813360318,0.52616963
7013,40.868699,-74.17102,Passaic County,NJ,34031,H1,0.813360318,0.52616963
7014,40.834049,-74.13669,Passaic County,NJ,34031,H1,0.813360318,0.52616963
7055,40.857384,-74.12899,Passaic County,NJ,34031,H1,0.813360318,0.52616963
7403,41.014497,-74.33021,Passaic County,NJ,34031,H1,0.813360318,0.52616963
7420,41.026747,-74.29742,Passaic County,NJ,34031,H1,0.813360318,0.52616963
7442,40.99948,-74.28807,Passaic County,NJ,34031,H1,0.813360318,0.52616963
7456,41.096095,-74.26012,Passaic County,NJ,34031,H1,0.813360318,0.52616963
7465,41.052958,-74.28236,Passaic County,NJ,34031,H1,0.813360318,0.52616963
7470,40.943608,-74.25004,Passaic County,NJ,34031,H1,0.813360318,0.52616963
7480,41.102569,-74.37047,Passaic County,NJ,34031,H1,0.813360318,0.52616963
7501,40.912198,-74.16863,Passaic County,NJ,34031,H1,0.813360318,0.52616963
7502,40.918948,-74.1939,Passaic County,NJ,34031,H1,0.813360318,0.52616963
7503,40.896798,-74.15731,Passaic County,NJ,34031,H1,0.813360318,0.52616963
7504,40.912148,-74.14271,Passaic County,NJ,34031,H1,0.813360318,0.52616963
7505,40.916165,-74.17129,Passaic County,NJ,34031,H1,0.813360318,0.52616963
7506,40.957498,-74.15627,Passaic County,NJ,34031,H1,0.813360318,0.52616963
7508,40.945198,-74.18286,Passaic County,NJ,34031,H1,0.813360318,0.52616963
7510,41.011428,-74.304793,Passaic County,NJ,34031,H1,0.813360318,0.52616963
7512,40.903348,-74.21763,Passaic County,NJ,34031,H1,0.813360318,0.52616963
7513,40.906598,-74.14944,Passaic County,NJ,34031,H1,0.813360318,0.52616963
7514,40.923648,-74.14321,Passaic County,NJ,34031,H1,0.813360318,0.52616963
7522,40.925778,-74.17784,Passaic County,NJ,34031,H1,0.813360318,0.52616963
7524,40.930398,-74.15829,Passaic County,NJ,34031,H1,0.813360318,0.52616963
79837,31.937024,-105.19353,Hudspeth County,TX,48229,H1,0.814275656,0.513848504
79839,31.270689,-105.6653,Hudspeth County,TX,48229,H1,0.814275656,0.513848504
79851,31.182009,-105.34084,Hudspeth County,TX,48229,H1,0.814275656,0.513848504
39630,31.463533,-90.84522,Franklin County,MS,28037,H1,0.815438962,0.508187275
42720,37.121145,-85.370926,Adair County,KY,21001,H1,0.816129836,0.517714655
42742,37.098391,-85.50199,Adair County,KY,21001,H1,0.816129836,0.517714655
42753,37.242258,-85.20271,Adair County,KY,21001,H1,0.816129836,0.517714655
81123,37.419263,-105.58024,Costilla County,CO,8023,H1,0.816147195,0.526679921
81126,37.175339,-105.34164,Costilla County,CO,8023,H1,0.816147195,0.526679921
81133,37.375698,-105.37293,Costilla County,CO,8023,H1,0.816147195,0.526679921
81138,37.197731,-105.429395,Costilla County,CO,8023,H1,0.816147195,0.526679921
81152,37.134458,-105.54778,Costilla County,CO,8023,H1,0.816147195,0.526679921
29512,34.657694,-79.69151,Marlboro County,SC,45069,H1,0.817083834,0.499870502
29516,34.467072,-79.6437,Marlboro County,SC,45069,H1,0.817083834,0.499870502
29570,34.671428,-79.55308,Marlboro County,SC,45069,H1,0.817083834,0.499870502
29594,34.645047,-79.58188,Marlboro County,SC,45069,H1,0.817083834,0.499870502
29596,34.743074,-79.83177,Marlboro County,SC,45069,H1,0.817083834,0.499870502
24239,37.107474,-82.12413,Buchanan County,VA,51027,H1,0.817776166,0.551702617
24603,37.371119,-82.1645,Buchanan County,VA,51027,H1,0.817776166,0.551702617
24614,37.296213,-82.05775,Buchanan County,VA,51027,H1,0.817776166,0.551702617
24620,37.409883,-82.02317,Buchanan County,VA,51027,H1,0.817776166,0.551702617
24624,37.204272,-81.97936,Buchanan County,VA,51027,H1,0.817776166,0.551702617
24627,37.287992,-82.027408,Buchanan County,VA,51027,H1,0.817776166,0.551702617
24628,37.308652,-82.18593,Buchanan County,VA,51027,H1,0.817776166,0.551702617
24631,37.223011,-82.00538,Buchanan County,VA,51027,H1,0.817776166,0.551702617
24634,37.250363,-81.89766,Buchanan County,VA,51027,H1,0.817776166,0.551702617
24646,37.14445,-81.99735,Buchanan County,VA,51027,H1,0.817776166,0.551702617
24656,37.198005,-82.12193,Buchanan County,VA,51027,H1,0.817776166,0.551702617
24657,37.226416,-81.86739,Buchanan County,VA,51027,H1,0.817776166,0.551702617
24658,37.287992,-82.027408,Buchanan County,VA,51027,H1,0.817776166,0.551702617
74534,34.612564,-96.35556,Coal County,OK,40029,H1,0.81889807,0.495990684
74535,34.488403,-96.43356,Coal County,OK,40029,H1,0.81889807,0.495990684
74538,34.553763,-96.23084,Coal County,OK,40029,H1,0.81889807,0.495990684
74556,34.471798,-96.20366,Coal County,OK,40029,H1,0.81889807,0.495990684
74572,34.626083,-96.43083,Coal County,OK,40029,H1,0.81889807,0.495990684
71826,33.102083,-93.67372,Lafayette County,AR,5073,H1,0.820572491,0.5211984
71827,33.378452,-93.43692,Lafayette County,AR,5073,H1,0.820572491,0.5211984
41307,37.515013,-83.26432,Breathitt County,KY,21025,H1,0.823521116,0.524282173
41310,37.640938,-83.24466,Breathitt County,KY,21025,H1,0.823521116,0.524282173
41317,37.461944,-83.18256,Breathitt County,KY,21025,H1,0.823521116,0.524282173
41348,37.426337,-83.29911,Breathitt County,KY,21025,H1,0.823521116,0.524282173
41366,37.593059,-83.287774,Breathitt County,KY,21025,H1,0.823521116,0.524282173
41385,37.635723,-83.35077,Breathitt County,KY,21025,H1,0.823521116,0.524282173
41390,37.424083,-83.37595,Breathitt County,KY,21025,H1,0.823521116,0.524282173
78520,25.928274,-97.51618,Cameron County,TX,48061,H1,0.823675244,0.539844086
78521,25.918758,-97.42739,Cameron County,TX,48061,H1,0.823675244,0.539844086
78526,25.969007,-97.47211,Cameron County,TX,48061,H1,0.823675244,0.539844086
78535,26.245051,-97.74157,Cameron County,TX,48061,H1,0.823675244,0.539844086
78550,26.206602,-97.68776,Cameron County,TX,48061,H1,0.823675244,0.539844086
78552,26.195591,-97.75321,Cameron County,TX,48061,H1,0.823675244,0.539844086
78559,26.149453,-97.82923,Cameron County,TX,48061,H1,0.823675244,0.539844086
78566,26.099562,-97.43927,Cameron County,TX,48061,H1,0.823675244,0.539844086
78567,26.041669,-97.693736,Cameron County,TX,48061,H1,0.823675244,0.539844086
78568,26.190402,-97.542263,Cameron County,TX,48061,H1,0.823675244,0.539844086
78575,26.023905,-97.54457,Cameron County,TX,48061,H1,0.823675244,0.539844086
78578,26.080434,-97.25024,Cameron County,TX,48061,H1,0.823675244,0.539844086
78583,26.259032,-97.52948,Cameron County,TX,48061,H1,0.823675244,0.539844086
78586,26.111261,-97.63519,Cameron County,TX,48061,H1,0.823675244,0.539844086
78592,26.078355,-97.84169,Cameron County,TX,48061,H1,0.823675244,0.539844086
78593,26.27109,-97.82904,Cameron County,TX,48061,H1,0.823675244,0.539844086
78597,26.117636,-97.17019,Cameron County,TX,48061,H1,0.823675244,0.539844086
42603,36.7703,-85.01043,Wayne County,KY,21231,H1,0.824173891,0.515185919
42633,36.801922,-84.82841,Wayne County,KY,21231,H1,0.824173891,0.515185919
39116,31.881155,-89.55099,Smith County,MS,28129,H1,0.824291585,0.551059663
39153,32.035356,-89.49748,Smith County,MS,28129,H1,0.824291585,0.551059663
40313,38.156248,-83.41586,Rowan County,KY,21205,H1,0.825377933,0.520095146
40317,38.176471,-83.268234,Rowan County,KY,21205,H1,0.825377933,0.520095146
40319,38.140258,-83.533691,Rowan County,KY,21205,H1,0.825377933,0.520095146
25267,38.849663,-80.96569,Gilmer County,WV,54021,H1,0.827862154,0.50704065
26137,38.991483,-81.06772,Gilmer County,WV,54021,H1,0.827862154,0.50704065
26342,39.018602,-80.85231,Gilmer County,WV,54021,H1,0.827862154,0.50704065
26351,38.939952,-80.84886,Gilmer County,WV,54021,H1,0.827862154,0.50704065
26384,38.983677,-80.70654,Gilmer County,WV,54021,H1,0.827862154,0.50704065
26430,38.891042,-80.74656,Gilmer County,WV,54021,H1,0.827862154,0.50704065
26443,39.080329,-80.76956,Gilmer County,WV,54021,H1,0.827862154,0.50704065
26636,38.74076,-80.9435,Gilmer County,WV,54021,H1,0.827862154,0.50704065
26638,38.7357,-80.98431,Gilmer County,WV,54021,H1,0.827862154,0.50704065
75564,32.880182,-94.27725,Marion County,TX,48315,H1,0.828108199,0.542254475
39361,32.985613,-88.57464,Noxubee County,MS,28103,H1,0.828175154,0.524880087
39739,33.243098,-88.60228,Noxubee County,MS,28103,H1,0.828175154,0.524880087
72310,35.852046,-89.972762,Mississippi County,AR,5093,H1,0.828469528,0.533021371
72313,35.712249,-90.028429,Mississippi County,AR,5093,H1,0.828469528,0.533021371
72315,35.925991,-89.91767,Mississippi County,AR,5093,H1,0.828469528,0.533021371
72321,35.818518,-89.93751,Mississippi County,AR,5093,H1,0.828469528,0.533021371
72329,35.621318,-90.00576,Mississippi County,AR,5093,H1,0.828469528,0.533021371
72330,35.601699,-90.20386,Mississippi County,AR,5093,H1,0.828469528,0.533021371
72338,35.443275,-90.17801,Mississippi County,AR,5093,H1,0.828469528,0.533021371
72350,35.512756,-90.14514,Mississippi County,AR,5093,H1,0.828469528,0.533021371
72351,35.673312,-90.0974,Mississippi County,AR,5093,H1,0.828469528,0.533021371
72358,35.777085,-89.89214,Mississippi County,AR,5093,H1,0.828469528,0.533021371
72370,35.696385,-90.02631,Mississippi County,AR,5093,H1,0.828469528,0.533021371
72391,35.694942,-89.966819,Mississippi County,AR,5093,H1,0.828469528,0.533021371
72395,35.585875,-90.04742,Mississippi County,AR,5093,H1,0.828469528,0.533021371
72426,35.855743,-90.04314,Mississippi County,AR,5093,H1,0.828469528,0.533021371
72428,35.744651,-90.22249,Mississippi County,AR,5093,H1,0.828469528,0.533021371
72442,35.83821,-90.17029,Mississippi County,AR,5093,H1,0.828469528,0.533021371
32052,30.491893,-82.94876,Hamilton County,FL,12047,H1,0.828505571,0.498502252
32053,30.581517,-83.13841,Hamilton County,FL,12047,H1,0.828505571,0.498502252
81030,38.107901,-103.51113,Otero County,CO,8089,H1,0.829083501,0.506349558
81067,38.042083,-103.72231,Otero County,CO,8089,H1,0.829083501,0.506349558
81077,38.015189,-103.62827,Otero County,CO,8089,H1,0.829083501,0.506349558
31041,32.371371,-84.18258,Macon County,GA,13193,H1,0.829475843,0.552436266
31057,32.446656,-83.93413,Macon County,GA,13193,H1,0.829475843,0.552436266
31068,32.329164,-84.07988,Macon County,GA,13193,H1,0.829475843,0.552436266
83441,43.776095,-111.691047,Madison County,ID,16065,H1,0.830173019,0.527715171
83460,43.776095,-111.691047,Madison County,ID,16065,H1,0.830173019,0.527715171
38929,33.748508,-89.54482,Grenada County,MS,28043,H1,0.832181914,0.521010988
38960,33.787157,-89.821941,Grenada County,MS,28043,H1,0.832181914,0.521010988
39067,33.127907,-89.46704,Attala County,MS,28007,H1,0.833449901,0.52804279
39160,33.002813,-89.75296,Attala County,MS,28007,H1,0.833449901,0.52804279
